G21 ; Set Units to Millimeters
G17 ; Set Plane Selection to XY
G90 ; Set Absolute Positioning
F5000  ; Set Speed to 2500 mm/min
G0Z0 ; pen up
G00 X8.3648 Y265.1363
G0Z6 ; pen down on paper
G01 X24.9070 Y265.7140
G01 X25.4596 Y249.8910
G01 X8.9173 Y249.3133
G01 X8.3648 Y265.1363
G0Z0 ; pen up
G00 X24.9171 Y265.1363
G0Z6 ; pen down on paper
G01 X41.4593 Y265.7140
G01 X42.0119 Y249.8910
G01 X25.4697 Y249.3133
G01 X24.9171 Y265.1363
G0Z0 ; pen up
G00 X41.3377 Y264.9860
G0Z6 ; pen down on paper
G01 X57.8673 Y265.8523
G01 X58.6960 Y250.0413
G01 X42.1663 Y249.1750
G01 X41.3377 Y264.9860
G0Z0 ; pen up
G00 X57.8900 Y264.9860
G0Z6 ; pen down on paper
G01 X74.4197 Y265.8523
G01 X75.2483 Y250.0413
G01 X58.7187 Y249.1750
G01 X57.8900 Y264.9860
G0Z0 ; pen up
G00 X74.8453 Y265.4300
G0Z6 ; pen down on paper
G01 X91.3977 Y265.4300
G01 X91.3977 Y249.5973
G01 X74.8453 Y249.5973
G01 X74.8453 Y265.4300
G0Z0 ; pen up
G00 X91.6790 Y265.7140
G0Z6 ; pen down on paper
G01 X108.2212 Y265.1363
G01 X107.6687 Y249.3133
G01 X91.1264 Y249.8910
G01 X91.6790 Y265.7140
G0Z0 ; pen up
G00 X108.0894 Y265.5732
G0Z6 ; pen down on paper
G01 X124.6392 Y265.2844
G01 X124.3629 Y249.4541
G01 X107.8131 Y249.7430
G01 X108.0894 Y265.5732
G0Z0 ; pen up
G00 X124.0994 Y264.9860
G0Z6 ; pen down on paper
G01 X140.6290 Y265.8523
G01 X141.4576 Y250.0413
G01 X124.9280 Y249.1750
G01 X124.0994 Y264.9860
G0Z0 ; pen up
G00 X141.1941 Y265.5732
G0Z6 ; pen down on paper
G01 X157.7439 Y265.2844
G01 X157.4676 Y249.4541
G01 X140.9178 Y249.7430
G01 X141.1941 Y265.5732
G0Z0 ; pen up
G00 X157.2040 Y264.9860
G0Z6 ; pen down on paper
G01 X173.7337 Y265.8523
G01 X174.5623 Y250.0413
G01 X158.0327 Y249.1750
G01 X157.2040 Y264.9860
G0Z0 ; pen up
G00 X174.4407 Y265.7140
G0Z6 ; pen down on paper
G01 X190.9829 Y265.1363
G01 X190.4303 Y249.3133
G01 X173.8881 Y249.8910
G01 X174.4407 Y265.7140
G0Z0 ; pen up
G00 X190.8511 Y265.5732
G0Z6 ; pen down on paper
G01 X207.4009 Y265.2844
G01 X207.1246 Y249.4541
G01 X190.5748 Y249.7430
G01 X190.8511 Y265.5732
G0Z0 ; pen up
G00 X7.8539 Y248.6889
G0Z6 ; pen down on paper
G01 X24.3155 Y250.4191
G01 X25.9705 Y234.6731
G01 X9.5088 Y232.9429
G01 X7.8539 Y248.6889
G0Z0 ; pen up
G00 X25.3278 Y249.7406
G0Z6 ; pen down on paper
G01 X41.8776 Y249.4517
G01 X41.6012 Y233.6214
G01 X25.0514 Y233.9103
G01 X25.3278 Y249.7406
G0Z0 ; pen up
G00 X41.0822 Y248.8459
G0Z6 ; pen down on paper
G01 X57.5716 Y250.2885
G01 X58.9515 Y234.5161
G01 X42.4621 Y233.0735
G01 X41.0822 Y248.8459
G0Z0 ; pen up
G00 X58.4324 Y249.7406
G0Z6 ; pen down on paper
G01 X74.9822 Y249.4517
G01 X74.7059 Y233.6214
G01 X58.1561 Y233.9103
G01 X58.4324 Y249.7406
G0Z0 ; pen up
G00 X74.8453 Y249.5973
G0Z6 ; pen down on paper
G01 X91.3977 Y249.5973
G01 X91.3977 Y233.7647
G01 X74.8453 Y233.7647
G01 X74.8453 Y249.5973
G0Z0 ; pen up
G00 X90.8656 Y249.0007
G0Z6 ; pen down on paper
G01 X107.3776 Y250.1554
G01 X108.4821 Y234.3613
G01 X91.9700 Y233.2066
G01 X90.8656 Y249.0007
G0Z0 ; pen up
G00 X107.8131 Y249.4517
G0Z6 ; pen down on paper
G01 X124.3629 Y249.7406
G01 X124.6392 Y233.9103
G01 X108.0894 Y233.6214
G01 X107.8131 Y249.4517
G0Z0 ; pen up
G00 X124.7837 Y249.8813
G0Z6 ; pen down on paper
G01 X141.3259 Y249.3037
G01 X140.7733 Y233.4807
G01 X124.2311 Y234.0583
G01 X124.7837 Y249.8813
G0Z0 ; pen up
G00 X141.4803 Y250.0196
G0Z6 ; pen down on paper
G01 X158.0100 Y249.1533
G01 X157.1813 Y233.3424
G01 X140.6517 Y234.2087
G01 X141.4803 Y250.0196
G0Z0 ; pen up
G00 X158.0327 Y250.0196
G0Z6 ; pen down on paper
G01 X174.5623 Y249.1533
G01 X173.7337 Y233.3424
G01 X157.2040 Y234.2087
G01 X158.0327 Y250.0196
G0Z0 ; pen up
G00 X174.2988 Y249.7406
G0Z6 ; pen down on paper
G01 X190.8486 Y249.4517
G01 X190.5722 Y233.6214
G01 X174.0224 Y233.9103
G01 X174.2988 Y249.7406
G0Z0 ; pen up
G00 X190.4404 Y249.3037
G0Z6 ; pen down on paper
G01 X206.9827 Y249.8813
G01 X207.5352 Y234.0583
G01 X190.9930 Y233.4807
G01 X190.4404 Y249.3037
G0Z0 ; pen up
G00 X9.0617 Y234.1870
G0Z6 ; pen down on paper
G01 X25.5913 Y233.3207
G01 X24.7627 Y217.5097
G01 X8.2330 Y218.3760
G01 X9.0617 Y234.1870
G0Z0 ; pen up
G00 X25.1883 Y233.7647
G0Z6 ; pen down on paper
G01 X41.7407 Y233.7647
G01 X41.7407 Y217.9320
G01 X25.1883 Y217.9320
G01 X25.1883 Y233.7647
G0Z0 ; pen up
G00 X41.8801 Y233.9079
G0Z6 ; pen down on paper
G01 X58.4299 Y233.6190
G01 X58.1536 Y217.7888
G01 X41.6038 Y218.0776
G01 X41.8801 Y233.9079
G0Z0 ; pen up
G00 X59.4753 Y234.8394
G0Z6 ; pen down on paper
G01 X75.8665 Y232.5358
G01 X73.6630 Y216.8572
G01 X57.2718 Y219.1609
G01 X59.4753 Y234.8394
G0Z0 ; pen up
G00 X73.7088 Y232.3725
G0Z6 ; pen down on paper
G01 X90.0574 Y234.9619
G01 X92.5342 Y219.3241
G01 X76.1856 Y216.7348
G01 X73.7088 Y232.3725
G0Z0 ; pen up
G00 X92.5800 Y234.8394
G0Z6 ; pen down on paper
G01 X108.9712 Y232.5358
G01 X106.7677 Y216.8572
G01 X90.3765 Y219.1609
G01 X92.5800 Y234.8394
G0Z0 ; pen up
G00 X108.2313 Y234.0487
G0Z6 ; pen down on paper
G01 X124.7736 Y233.4710
G01 X124.2210 Y217.6480
G01 X107.6788 Y218.2257
G01 X108.2313 Y234.0487
G0Z0 ; pen up
G00 X123.9703 Y233.1681
G0Z6 ; pen down on paper
G01 X140.4823 Y234.3227
G01 X141.5867 Y218.5286
G01 X125.0747 Y217.3740
G01 X123.9703 Y233.1681
G0Z0 ; pen up
G00 X141.1941 Y233.9079
G0Z6 ; pen down on paper
G01 X157.7439 Y233.6190
G01 X157.4676 Y217.7888
G01 X140.9178 Y218.0776
G01 X141.1941 Y233.9079
G0Z0 ; pen up
G00 X158.3284 Y234.4559
G0Z6 ; pen down on paper
G01 X174.8178 Y233.0132
G01 X173.4379 Y217.2408
G01 X156.9485 Y218.6834
G01 X158.3284 Y234.4559
G0Z0 ; pen up
G00 X173.7564 Y233.3207
G0Z6 ; pen down on paper
G01 X190.2860 Y234.1870
G01 X191.1146 Y218.3760
G01 X174.5850 Y217.5097
G01 X173.7564 Y233.3207
G0Z0 ; pen up
G00 X191.8940 Y234.8394
G0Z6 ; pen down on paper
G01 X208.2852 Y232.5358
G01 X206.0817 Y216.8572
G01 X189.6905 Y219.1609
G01 X191.8940 Y234.8394
G0Z0 ; pen up
G00 X10.1364 Y219.2489
G0Z6 ; pen down on paper
G01 X26.4373 Y216.3746
G01 X23.6879 Y200.7825
G01 X7.3871 Y203.6567
G01 X10.1364 Y219.2489
G0Z0 ; pen up
G00 X26.8509 Y219.3657
G0Z6 ; pen down on paper
G01 X43.0991 Y216.2074
G01 X40.0781 Y200.6656
G01 X23.8299 Y203.8239
G01 X26.8509 Y219.3657
G0Z0 ; pen up
G00 X40.8376 Y216.8644
G0Z6 ; pen down on paper
G01 X57.2666 Y218.8816
G01 X59.1961 Y203.1670
G01 X42.7671 Y201.1497
G01 X40.8376 Y216.8644
G0Z0 ; pen up
G00 X57.6345 Y217.1806
G0Z6 ; pen down on paper
G01 X74.1239 Y218.6232
G01 X75.5038 Y202.8508
G01 X59.0144 Y201.4081
G01 X57.6345 Y217.1806
G0Z0 ; pen up
G00 X75.4177 Y218.4900
G0Z6 ; pen down on paper
G01 X91.9297 Y217.3354
G01 X90.8253 Y201.5413
G01 X74.3133 Y202.6959
G01 X75.4177 Y218.4900
G0Z0 ; pen up
G00 X91.5371 Y218.0752
G0Z6 ; pen down on paper
G01 X108.0869 Y217.7864
G01 X107.8106 Y201.9561
G01 X91.2608 Y202.2450
G01 X91.5371 Y218.0752
G0Z0 ; pen up
G00 X107.4179 Y217.3354
G0Z6 ; pen down on paper
G01 X123.9300 Y218.4900
G01 X125.0344 Y202.6959
G01 X108.5224 Y201.5413
G01 X107.4179 Y217.3354
G0Z0 ; pen up
G00 X124.6418 Y218.0752
G0Z6 ; pen down on paper
G01 X141.1916 Y217.7864
G01 X140.9152 Y201.9561
G01 X124.3654 Y202.2450
G01 X124.6418 Y218.0752
G0Z0 ; pen up
G00 X141.1941 Y218.0752
G0Z6 ; pen down on paper
G01 X157.7439 Y217.7864
G01 X157.4676 Y201.9561
G01 X140.9178 Y202.2450
G01 X141.1941 Y218.0752
G0Z0 ; pen up
G00 X157.0749 Y217.3354
G0Z6 ; pen down on paper
G01 X173.5870 Y218.4900
G01 X174.6914 Y202.6959
G01 X158.1794 Y201.5413
G01 X157.0749 Y217.3354
G0Z0 ; pen up
G00 X174.0224 Y217.7864
G0Z6 ; pen down on paper
G01 X190.5722 Y218.0752
G01 X190.8486 Y202.2450
G01 X174.2988 Y201.9561
G01 X174.0224 Y217.7864
G0Z0 ; pen up
G00 X189.6905 Y216.7031
G0Z6 ; pen down on paper
G01 X206.0817 Y219.0068
G01 X208.2852 Y203.3282
G01 X191.8940 Y201.0246
G01 X189.6905 Y216.7031
G0Z0 ; pen up
G00 X7.2775 Y200.3747
G0Z6 ; pen down on paper
G01 X23.5258 Y203.5331
G01 X26.5468 Y187.9913
G01 X10.2986 Y184.8329
G01 X7.2775 Y200.3747
G0Z0 ; pen up
G00 X25.1883 Y202.0993
G0Z6 ; pen down on paper
G01 X41.7407 Y202.0993
G01 X41.7407 Y186.2667
G01 X25.1883 Y186.2667
G01 X25.1883 Y202.0993
G0Z0 ; pen up
G00 X41.7407 Y202.0993
G0Z6 ; pen down on paper
G01 X58.2930 Y202.0993
G01 X58.2930 Y186.2667
G01 X41.7407 Y186.2667
G01 X41.7407 Y202.0993
G0Z0 ; pen up
G00 X56.7243 Y200.0347
G0Z6 ; pen down on paper
G01 X72.8524 Y203.7582
G01 X76.4140 Y188.3313
G01 X60.2859 Y184.6078
G01 X56.7243 Y200.0347
G0Z0 ; pen up
G00 X76.3457 Y203.4162
G0Z6 ; pen down on paper
G01 X92.6466 Y200.5419
G01 X89.8973 Y184.9498
G01 X73.5964 Y187.8241
G01 X76.3457 Y203.4162
G0Z0 ; pen up
G00 X90.1487 Y200.5419
G0Z6 ; pen down on paper
G01 X106.4496 Y203.4162
G01 X109.1989 Y187.8241
G01 X92.8981 Y184.9498
G01 X90.1487 Y200.5419
G0Z0 ; pen up
G00 X108.3757 Y202.5216
G0Z6 ; pen down on paper
G01 X124.9053 Y201.6553
G01 X124.0767 Y185.8444
G01 X107.5470 Y186.7107
G01 X108.3757 Y202.5216
G0Z0 ; pen up
G00 X124.6418 Y202.2426
G0Z6 ; pen down on paper
G01 X141.1916 Y201.9537
G01 X140.9152 Y186.1234
G01 X124.3654 Y186.4123
G01 X124.6418 Y202.2426
G0Z0 ; pen up
G00 X141.7761 Y202.7905
G0Z6 ; pen down on paper
G01 X158.2655 Y201.3479
G01 X156.8856 Y185.5755
G01 X140.3962 Y187.0181
G01 X141.7761 Y202.7905
G0Z0 ; pen up
G00 X156.3581 Y200.5419
G0Z6 ; pen down on paper
G01 X172.6589 Y203.4162
G01 X175.4083 Y187.8241
G01 X159.1074 Y184.9498
G01 X156.3581 Y200.5419
G0Z0 ; pen up
G00 X173.5009 Y201.3479
G0Z6 ; pen down on paper
G01 X189.9902 Y202.7905
G01 X191.3701 Y187.0181
G01 X174.8808 Y185.5755
G01 X173.5009 Y201.3479
G0Z0 ; pen up
G00 X191.7381 Y203.0489
G0Z6 ; pen down on paper
G01 X208.1671 Y201.0317
G01 X206.2376 Y185.3171
G01 X189.8086 Y187.3343
G01 X191.7381 Y203.0489
G0Z0 ; pen up
G00 X11.1386 Y188.2412
G0Z6 ; pen down on paper
G01 X27.0498 Y183.6788
G01 X22.6857 Y168.4594
G01 X6.7746 Y173.0219
G01 X11.1386 Y188.2412
G0Z0 ; pen up
G00 X23.3269 Y183.6788
G0Z6 ; pen down on paper
G01 X39.2380 Y188.2412
G01 X43.6021 Y173.0219
G01 X27.6910 Y168.4594
G01 X23.3269 Y183.6788
G0Z0 ; pen up
G00 X40.9585 Y185.3582
G0Z6 ; pen down on paper
G01 X57.4202 Y187.0884
G01 X59.0751 Y171.3425
G01 X42.6135 Y169.6123
G01 X40.9585 Y185.3582
G0Z0 ; pen up
G00 X57.2718 Y185.0378
G0Z6 ; pen down on paper
G01 X73.6630 Y187.3414
G01 X75.8665 Y171.6629
G01 X59.4753 Y169.3592
G01 X57.2718 Y185.0378
G0Z0 ; pen up
G00 X73.2767 Y184.2020
G0Z6 ; pen down on paper
G01 X89.4048 Y187.9255
G01 X92.9663 Y172.4986
G01 X76.8382 Y168.7752
G01 X73.2767 Y184.2020
G0Z0 ; pen up
G00 X90.4946 Y185.1990
G0Z6 ; pen down on paper
G01 X106.9236 Y187.2163
G01 X108.8531 Y171.5016
G01 X92.4241 Y169.4844
G01 X90.4946 Y185.1990
G0Z0 ; pen up
G00 X109.4504 Y187.5835
G0Z6 ; pen down on paper
G01 X125.7513 Y184.7093
G01 X123.0019 Y169.1171
G01 X106.7011 Y171.9914
G01 X109.4504 Y187.5835
G0Z0 ; pen up
G00 X122.4611 Y183.3217
G0Z6 ; pen down on paper
G01 X138.2033 Y188.4367
G01 X143.0959 Y173.3789
G01 X127.3537 Y168.2640
G01 X122.4611 Y183.3217
G0Z0 ; pen up
G00 X141.0547 Y186.2667
G0Z6 ; pen down on paper
G01 X157.6070 Y186.2667
G01 X157.6070 Y170.4340
G01 X141.0547 Y170.4340
G01 X141.0547 Y186.2667
G0Z0 ; pen up
G00 X156.2485 Y184.5421
G0Z6 ; pen down on paper
G01 X172.4968 Y187.7004
G01 X175.5178 Y172.1586
G01 X159.2696 Y169.0003
G01 X156.2485 Y184.5421
G0Z0 ; pen up
G00 X174.8808 Y186.9579
G0Z6 ; pen down on paper
G01 X191.3701 Y185.5152
G01 X189.9902 Y169.7428
G01 X173.5009 Y171.1854
G01 X174.8808 Y186.9579
G0Z0 ; pen up
G00 X191.5845 Y187.0884
G0Z6 ; pen down on paper
G01 X208.0461 Y185.3582
G01 X206.3912 Y169.6123
G01 X189.9295 Y171.3425
G01 X191.5845 Y187.0884
G0Z0 ; pen up
G00 X9.3574 Y171.1252
G0Z6 ; pen down on paper
G01 X25.8468 Y169.6826
G01 X24.4669 Y153.9101
G01 X7.9775 Y155.3528
G01 X9.3574 Y171.1252
G0Z0 ; pen up
G00 X23.9394 Y168.8766
G0Z6 ; pen down on paper
G01 X40.2403 Y171.7509
G01 X42.9896 Y156.1587
G01 X26.6887 Y153.2845
G01 X23.9394 Y168.8766
G0Z0 ; pen up
G00 X44.2433 Y172.4086
G0Z6 ; pen down on paper
G01 X60.1544 Y167.8461
G01 X55.7904 Y152.6268
G01 X39.8792 Y157.1892
G01 X44.2433 Y172.4086
G0Z0 ; pen up
G00 X58.1561 Y170.2884
G0Z6 ; pen down on paper
G01 X74.7059 Y170.5772
G01 X74.9822 Y154.7470
G01 X58.4324 Y154.4581
G01 X58.1561 Y170.2884
G0Z0 ; pen up
G00 X74.1869 Y169.6826
G0Z6 ; pen down on paper
G01 X90.6762 Y171.1252
G01 X92.0561 Y155.3528
G01 X75.5668 Y153.9101
G01 X74.1869 Y169.6826
G0Z0 ; pen up
G00 X94.2490 Y172.6040
G0Z6 ; pen down on paper
G01 X109.9912 Y167.4891
G01 X105.0987 Y152.4313
G01 X89.3564 Y157.5463
G01 X94.2490 Y172.6040
G0Z0 ; pen up
G00 X109.1323 Y171.5088
G0Z6 ; pen down on paper
G01 X125.5235 Y169.2051
G01 X123.3200 Y153.5266
G01 X106.9288 Y155.8302
G01 X109.1323 Y171.5088
G0Z0 ; pen up
G00 X122.2939 Y167.1260
G0Z6 ; pen down on paper
G01 X137.8480 Y172.7872
G01 X143.2631 Y157.9094
G01 X127.7090 Y152.2481
G01 X122.2939 Y167.1260
G0Z0 ; pen up
G00 X139.1932 Y167.8461
G0Z6 ; pen down on paper
G01 X155.1044 Y172.4086
G01 X159.4684 Y157.1892
G01 X143.5573 Y152.6268
G01 X139.1932 Y167.8461
G0Z0 ; pen up
G00 X156.8249 Y169.5255
G0Z6 ; pen down on paper
G01 X173.2865 Y171.2557
G01 X174.9415 Y155.5098
G01 X158.4798 Y153.7796
G01 X156.8249 Y169.5255
G0Z0 ; pen up
G00 X174.0224 Y170.2884
G0Z6 ; pen down on paper
G01 X190.5722 Y170.5772
G01 X190.8486 Y154.7470
G01 X174.2988 Y154.4581
G01 X174.0224 Y170.2884
G0Z0 ; pen up
G00 X188.7588 Y167.6684
G0Z6 ; pen down on paper
G01 X204.5879 Y172.5078
G01 X209.2169 Y157.3670
G01 X193.3878 Y152.5275
G01 X188.7588 Y167.6684
G0Z0 ; pen up
G00 X6.5948 Y151.6564
G0Z6 ; pen down on paper
G01 X22.3370 Y156.7714
G01 X27.2296 Y141.7136
G01 X11.4873 Y136.5986
G01 X6.5948 Y151.6564
G0Z0 ; pen up
G00 X26.8509 Y156.0351
G0Z6 ; pen down on paper
G01 X43.0991 Y152.8767
G01 X40.0781 Y137.3349
G01 X23.8299 Y140.4933
G01 X26.8509 Y156.0351
G0Z0 ; pen up
G00 X42.3130 Y155.1594
G0Z6 ; pen down on paper
G01 X58.8251 Y154.0047
G01 X57.7206 Y138.2106
G01 X41.2086 Y139.3653
G01 X42.3130 Y155.1594
G0Z0 ; pen up
G00 X57.0441 Y153.0439
G0Z6 ; pen down on paper
G01 X73.3449 Y155.9182
G01 X76.0943 Y140.3261
G01 X59.7934 Y137.4518
G01 X57.0441 Y153.0439
G0Z0 ; pen up
G00 X74.7084 Y154.4557
G0Z6 ; pen down on paper
G01 X91.2582 Y154.7446
G01 X91.5346 Y138.9143
G01 X74.9848 Y138.6254
G01 X74.7084 Y154.4557
G0Z0 ; pen up
G00 X90.2612 Y153.2092
G0Z6 ; pen down on paper
G01 X106.6097 Y155.7985
G01 X109.0865 Y140.1608
G01 X92.7379 Y137.5715
G01 X90.2612 Y153.2092
G0Z0 ; pen up
G00 X105.9088 Y151.6564
G0Z6 ; pen down on paper
G01 X121.6510 Y156.7714
G01 X126.5436 Y141.7136
G01 X110.8013 Y136.5986
G01 X105.9088 Y151.6564
G0Z0 ; pen up
G00 X122.5495 Y151.8357
G0Z6 ; pen down on paper
G01 X138.3785 Y156.6751
G01 X143.0075 Y141.5343
G01 X127.1785 Y136.6949
G01 X122.5495 Y151.8357
G0Z0 ; pen up
G00 X143.9060 Y156.7714
G0Z6 ; pen down on paper
G01 X159.6482 Y151.6564
G01 X154.7557 Y136.5986
G01 X139.0134 Y141.7136
G01 X143.9060 Y156.7714
G0Z0 ; pen up
G00 X159.9379 Y156.4736
G0Z6 ; pen down on paper
G01 X175.9262 Y152.1896
G01 X171.8284 Y136.8964
G01 X155.8401 Y141.1804
G01 X159.9379 Y156.4736
G0Z0 ; pen up
G00 X173.3772 Y153.6929
G0Z6 ; pen down on paper
G01 X189.8388 Y155.4231
G01 X191.4938 Y139.6771
G01 X175.0322 Y137.9469
G01 X173.3772 Y153.6929
G0Z0 ; pen up
G00 X191.8940 Y155.6761
G0Z6 ; pen down on paper
G01 X208.2852 Y153.3725
G01 X206.0817 Y137.6939
G01 X189.6905 Y139.9975
G01 X191.8940 Y155.6761
G0Z0 ; pen up
G00 X6.6831 Y136.0030
G0Z6 ; pen down on paper
G01 X22.5122 Y140.8425
G01 X27.1412 Y125.7016
G01 X11.3121 Y120.8622
G01 X6.6831 Y136.0030
G0Z0 ; pen up
G00 X23.1471 Y135.8237
G0Z6 ; pen down on paper
G01 X38.8893 Y140.9387
G01 X43.7819 Y125.8809
G01 X28.0397 Y120.7660
G01 X23.1471 Y135.8237
G0Z0 ; pen up
G00 X45.8617 Y141.5246
G0Z6 ; pen down on paper
G01 X60.8632 Y134.5293
G01 X54.1720 Y120.1800
G01 X39.1705 Y127.1754
G01 X45.8617 Y141.5246
G0Z0 ; pen up
G00 X56.7243 Y136.7040
G0Z6 ; pen down on paper
G01 X72.8524 Y140.4275
G01 X76.4140 Y125.0006
G01 X60.2859 Y121.2772
G01 X56.7243 Y136.7040
G0Z0 ; pen up
G00 X74.4424 Y138.3247
G0Z6 ; pen down on paper
G01 X90.9720 Y139.1910
G01 X91.8006 Y123.3800
G01 X75.2710 Y122.5137
G01 X74.4424 Y138.3247
G0Z0 ; pen up
G00 X91.2608 Y138.6230
G0Z6 ; pen down on paper
G01 X107.8106 Y138.9119
G01 X108.0869 Y123.0816
G01 X91.5371 Y122.7928
G01 X91.2608 Y138.6230
G0Z0 ; pen up
G00 X108.8228 Y139.5904
G0Z6 ; pen down on paper
G01 X125.2845 Y137.8602
G01 X123.6295 Y122.1143
G01 X107.1679 Y123.8445
G01 X108.8228 Y139.5904
G0Z0 ; pen up
G00 X125.5288 Y139.7183
G0Z6 ; pen down on paper
G01 X141.9577 Y137.7010
G01 X140.0282 Y121.9864
G01 X123.5993 Y124.0036
G01 X125.5288 Y139.7183
G0Z0 ; pen up
G00 X144.0829 Y141.0318
G0Z6 ; pen down on paper
G01 X159.7334 Y135.6429
G01 X154.5788 Y120.6728
G01 X138.9283 Y126.0617
G01 X144.0829 Y141.0318
G0Z0 ; pen up
G00 X155.1026 Y134.7180
G0Z6 ; pen down on paper
G01 X170.2240 Y141.4505
G01 X176.6637 Y126.9866
G01 X161.5424 Y120.2542
G01 X155.1026 Y134.7180
G0Z0 ; pen up
G00 X175.6597 Y140.0855
G0Z6 ; pen down on paper
G01 X191.9606 Y137.2113
G01 X189.2113 Y121.6191
G01 X172.9104 Y124.4934
G01 X175.6597 Y140.0855
G0Z0 ; pen up
G00 X192.7046 Y140.4275
G0Z6 ; pen down on paper
G01 X208.8327 Y136.7040
G01 X205.2711 Y121.2772
G01 X189.1430 Y125.0006
G01 X192.7046 Y140.4275
G0Z0 ; pen up
G00 X6.4276 Y119.6280
G0Z6 ; pen down on paper
G01 X21.9817 Y125.2892
G01 X27.3968 Y110.4114
G01 X11.8427 Y104.7501
G01 X6.4276 Y119.6280
G0Z0 ; pen up
G00 X24.6563 Y122.3394
G0Z6 ; pen down on paper
G01 X41.1683 Y123.4940
G01 X42.2727 Y107.6999
G01 X25.7607 Y106.5453
G01 X24.6563 Y122.3394
G0Z0 ; pen up
G00 X42.0220 Y123.2200
G0Z6 ; pen down on paper
G01 X58.5642 Y122.6423
G01 X58.0117 Y106.8193
G01 X41.4694 Y107.3970
G01 X42.0220 Y123.2200
G0Z0 ; pen up
G00 X58.0218 Y122.6423
G0Z6 ; pen down on paper
G01 X74.5640 Y123.2200
G01 X75.1166 Y107.3970
G01 X58.5743 Y106.8193
G01 X58.0218 Y122.6423
G0Z0 ; pen up
G00 X72.7189 Y119.8103
G0Z6 ; pen down on paper
G01 X88.3695 Y125.1992
G01 X93.5241 Y110.2291
G01 X77.8735 Y104.8402
G01 X72.7189 Y119.8103
G0Z0 ; pen up
G00 X91.9700 Y123.4940
G0Z6 ; pen down on paper
G01 X108.4821 Y122.3394
G01 X107.3776 Y106.5453
G01 X90.8656 Y107.6999
G01 X91.9700 Y123.4940
G0Z0 ; pen up
G00 X106.5915 Y121.2114
G0Z6 ; pen down on paper
G01 X122.8398 Y124.3697
G01 X125.8608 Y108.8279
G01 X109.6126 Y105.6696
G01 X106.5915 Y121.2114
G0Z0 ; pen up
G00 X128.6233 Y125.6920
G0Z6 ; pen down on paper
G01 X143.6248 Y118.6966
G01 X136.9337 Y104.3474
G01 X121.9322 Y111.3427
G01 X128.6233 Y125.6920
G0Z0 ; pen up
G00 X140.0335 Y121.7071
G0Z6 ; pen down on paper
G01 X156.4247 Y124.0108
G01 X158.6282 Y108.3322
G01 X142.2370 Y106.0286
G01 X140.0335 Y121.7071
G0Z0 ; pen up
G00 X155.5658 Y119.9911
G0Z6 ; pen down on paper
G01 X171.3080 Y125.1060
G01 X176.2006 Y110.0483
G01 X160.4583 Y104.9333
G01 X155.5658 Y119.9911
G0Z0 ; pen up
G00 X174.0224 Y122.7904
G0Z6 ; pen down on paper
G01 X190.5722 Y123.0792
G01 X190.8486 Y107.2490
G01 X174.2988 Y106.9601
G01 X174.0224 Y122.7904
G0Z0 ; pen up
G00 X191.2840 Y123.4940
G0Z6 ; pen down on paper
G01 X207.7961 Y122.3394
G01 X206.6916 Y106.5453
G01 X190.1796 Y107.6999
G01 X191.2840 Y123.4940
G0Z0 ; pen up
G00 X5.6596 Y101.3187
G0Z6 ; pen down on paper
G01 X19.5416 Y110.3337
G01 X28.1647 Y97.0553
G01 X14.2827 Y88.0403
G01 X5.6596 Y101.3187
G0Z0 ; pen up
G00 X28.0397 Y109.2734
G0Z6 ; pen down on paper
G01 X43.7819 Y104.1584
G01 X38.8893 Y89.1006
G01 X23.1471 Y94.2156
G01 X28.0397 Y109.2734
G0Z0 ; pen up
G00 X42.7671 Y108.0529
G0Z6 ; pen down on paper
G01 X59.1961 Y106.0357
G01 X57.2666 Y90.3211
G01 X40.8376 Y92.3383
G01 X42.7671 Y108.0529
G0Z0 ; pen up
G00 X56.6237 Y104.8660
G0Z6 ; pen down on paper
G01 X72.6844 Y108.8704
G01 X76.5146 Y93.5080
G01 X60.4540 Y89.5036
G01 X56.6237 Y104.8660
G0Z0 ; pen up
G00 X74.3133 Y106.5067
G0Z6 ; pen down on paper
G01 X90.8253 Y107.6614
G01 X91.9297 Y91.8673
G01 X75.4177 Y90.7126
G01 X74.3133 Y106.5067
G0Z0 ; pen up
G00 X93.9003 Y109.0779
G0Z6 ; pen down on paper
G01 X109.8114 Y104.5154
G01 X105.4474 Y89.2961
G01 X89.5362 Y93.8586
G01 X93.9003 Y109.0779
G0Z0 ; pen up
G00 X113.2093 Y110.2352
G0Z6 ; pen down on paper
G01 X127.3974 Y101.7101
G01 X119.2430 Y88.1388
G01 X105.0549 Y96.6639
G01 X113.2093 Y110.2352
G0Z0 ; pen up
G00 X128.8102 Y109.9302
G0Z6 ; pen down on paper
G01 X143.6874 Y102.6741
G01 X136.7468 Y88.4438
G01 X121.8696 Y95.6999
G01 X128.8102 Y109.9302
G0Z0 ; pen up
G00 X143.5573 Y109.0779
G0Z6 ; pen down on paper
G01 X159.4684 Y104.5154
G01 X155.1044 Y89.2961
G01 X139.1932 Y93.8586
G01 X143.5573 Y109.0779
G0Z0 ; pen up
G00 X160.9937 Y109.5434
G0Z6 ; pen down on paper
G01 X176.4466 Y103.6116
G01 X170.7727 Y88.8306
G01 X155.3197 Y94.7624
G01 X160.9937 Y109.5434
G0Z0 ; pen up
G00 X173.0228 Y105.7112
G0Z6 ; pen down on paper
G01 X189.3714 Y108.3005
G01 X191.8482 Y92.6628
G01 X175.4996 Y90.0735
G01 X173.0228 Y105.7112
G0Z0 ; pen up
G00 X190.7117 Y107.1033
G0Z6 ; pen down on paper
G01 X207.2640 Y107.1033
G01 X207.2640 Y91.2707
G01 X190.7117 Y91.2707
G01 X190.7117 Y107.1033
G0Z0 ; pen up
G00 X6.8691 Y88.8589
G0Z6 ; pen down on paper
G01 X22.8574 Y93.1430
G01 X26.9552 Y77.8498
G01 X10.9669 Y73.5657
G01 X6.8691 Y88.8589
G0Z0 ; pen up
G00 X23.1471 Y88.3257
G0Z6 ; pen down on paper
G01 X38.8893 Y93.4407
G01 X43.7819 Y78.3829
G01 X28.0397 Y73.2680
G01 X23.1471 Y88.3257
G0Z0 ; pen up
G00 X41.0822 Y90.5192
G0Z6 ; pen down on paper
G01 X57.5716 Y91.9619
G01 X58.9515 Y76.1894
G01 X42.4621 Y74.7468
G01 X41.0822 Y90.5192
G0Z0 ; pen up
G00 X59.0144 Y91.9619
G0Z6 ; pen down on paper
G01 X75.5038 Y90.5192
G01 X74.1239 Y74.7468
G01 X57.6345 Y76.1894
G01 X59.0144 Y91.9619
G0Z0 ; pen up
G00 X75.7182 Y92.0924
G0Z6 ; pen down on paper
G01 X92.1798 Y90.3622
G01 X90.5248 Y74.6163
G01 X74.0632 Y76.3465
G01 X75.7182 Y92.0924
G0Z0 ; pen up
G00 X95.3330 Y93.9525
G0Z6 ; pen down on paper
G01 X110.4544 Y87.2200
G01 X104.0146 Y72.7562
G01 X88.8933 Y79.4886
G01 X95.3330 Y93.9525
G0Z0 ; pen up
G00 X112.6352 Y94.2295
G0Z6 ; pen down on paper
G01 X127.2501 Y86.4586
G01 X119.8171 Y72.4792
G01 X105.2023 Y80.2501
G01 X112.6352 Y94.2295
G0Z0 ; pen up
G00 X124.2311 Y90.9770
G0Z6 ; pen down on paper
G01 X140.7733 Y91.5547
G01 X141.3259 Y75.7317
G01 X124.7837 Y75.1540
G01 X124.2311 Y90.9770
G0Z0 ; pen up
G00 X141.1941 Y91.4139
G0Z6 ; pen down on paper
G01 X157.7439 Y91.1250
G01 X157.4676 Y75.2948
G01 X140.9178 Y75.5836
G01 X141.1941 Y91.4139
G0Z0 ; pen up
G00 X154.9743 Y86.8415
G0Z6 ; pen down on paper
G01 X169.8514 Y94.0975
G01 X176.7920 Y79.8672
G01 X161.9149 Y72.6111
G01 X154.9743 Y86.8415
G0Z0 ; pen up
G00 X171.0868 Y84.8942
G0Z6 ; pen down on paper
G01 X184.4780 Y94.6234
G01 X193.7842 Y81.8145
G01 X180.3930 Y72.0853
G01 X171.0868 Y84.8942
G0Z0 ; pen up
G00 X191.1373 Y91.6930
G0Z6 ; pen down on paper
G01 X207.6670 Y90.8267
G01 X206.8383 Y75.0157
G01 X190.3087 Y75.8820
G01 X191.1373 Y91.6930
G0Z0 ; pen up
G00 X10.2584 Y64.3292
G0Z6 ; pen down on paper
G01 X9.8473 Y64.3292
G01 X9.8473 Y66.9999
G01 X10.2584 Y66.9999
G01 X9.4324 Y66.9999
G01 X9.8473 Y66.9999
G01 X9.8473 Y64.3292
G01 X9.4324 Y64.3292
G01 X10.2584 Y64.3292
G0Z0 ; pen up
G00 X11.9179 Y64.3292
G0Z6 ; pen down on paper
G01 X12.6587 Y64.3292
G01 X12.3179 Y64.3292
G01 X12.3179 Y65.6812
G01 X13.4811 Y65.6812
G01 X12.3179 Y65.6812
G01 X12.3179 Y66.9999
G01 X13.6811 Y66.9999
G01 X13.6811 Y66.5406
G01 X13.6811 Y66.9999
G01 X11.9179 Y66.9999
G01 X12.3179 Y66.9999
G01 X12.3179 Y64.3292
G01 X11.9179 Y64.3292
G0Z0 ; pen up
G00 X15.0701 Y64.3292
G0Z6 ; pen down on paper
G01 X15.8999 Y64.3292
G01 X15.4813 Y64.3292
G01 X15.4813 Y66.9999
G01 X16.3481 Y66.9999
G01 X16.3481 Y66.4665
G01 X16.3481 Y66.9999
G01 X14.6182 Y66.9999
G01 X14.6182 Y66.4665
G01 X14.6182 Y66.9999
G01 X15.4813 Y66.9999
G01 X15.4813 Y64.3292
G01 X15.0701 Y64.3292
G0Z0 ; pen up
G00 X17.5038 Y65.7886
G0Z6 ; pen down on paper
G01 X17.5038 Y65.7886
G02 X17.6361 Y65.9044 I0.6667 J-0.6286
G02 X17.7927 Y65.9961 I0.5698 J-0.7936
G02 X17.9639 Y66.0537 I0.3426 J-0.7340
G02 X18.1520 Y66.0739 I0.1882 J-0.8691
G01 X18.1520 Y66.0739
G02 X18.3298 Y66.0559 I0.0000 J-0.8882
G02 X18.4965 Y66.0035 I-0.1700 J-0.8321
G02 X18.6499 Y65.9192 I-0.3671 J-0.8501
G02 X18.7799 Y65.8109 I-0.4858 J-0.7147
G02 X18.8868 Y65.6796 I-0.6418 J-0.6321
G02 X18.9706 Y65.5256 I-0.8022 J-0.5365
G02 X19.0230 Y65.3590 I-0.7797 J-0.3367
G02 X19.0410 Y65.1812 I-0.8702 J-0.1778
G01 X19.0410 Y65.1812
G02 X19.0228 Y64.9998 I-0.9109 J0.0000
G02 X18.9706 Y64.8348 I-0.8037 J0.1633
G02 X18.8867 Y64.6830 I-0.8521 J0.3722
G02 X18.7799 Y64.5552 I-0.7087 J0.4834
G02 X18.6505 Y64.4499 I-0.6178 J0.6275
G02 X18.4965 Y64.3662 I-0.5398 J0.8097
G02 X18.3298 Y64.3138 I-0.3367 J0.7797
G02 X18.1520 Y64.2959 I-0.1778 J0.8702
G01 X18.1520 Y64.2959
G02 X17.9705 Y64.3140 I0.0000 J0.9159
G02 X17.8038 Y64.3662 I0.1666 J0.8241
G02 X17.6498 Y64.4499 I0.3858 J0.8934
G02 X17.5204 Y64.5552 I0.4884 J0.7327
G02 X17.4136 Y64.6830 I0.6019 J0.6113
G02 X17.3297 Y64.8348 I0.7682 J0.5240
G02 X17.2775 Y64.9998 I0.7515 J0.3283
G02 X17.2593 Y65.1812 I0.8927 J0.1814
G01 X17.2593 Y65.1812
G02 X17.2728 Y65.3305 I0.8293 J0.0000
G02 X17.3112 Y65.4645 I0.7058 J-0.1292
G02 X17.3691 Y65.5929 I1.3514 J-0.5330
G02 X17.4371 Y65.7109 I1.2087 J-0.6180
G01 X17.4371 Y65.7109
G01 X18.3261 Y67.0110
G01 X17.4371 Y65.7109
G03 X17.3691 Y65.5929 I1.1407 J-0.7359
G03 X17.3112 Y65.4645 I1.2935 J-0.6613
G03 X17.2728 Y65.3305 I0.6675 J-0.2632
G03 X17.2593 Y65.1812 I0.8158 J-0.1493
G01 X17.2593 Y65.1812
G03 X17.2775 Y64.9998 I0.9109 J0.0000
G03 X17.3297 Y64.8348 I0.8037 J0.1633
G03 X17.4136 Y64.6830 I0.8521 J0.3722
G03 X17.5204 Y64.5552 I0.7087 J0.4834
G03 X17.6498 Y64.4499 I0.6178 J0.6275
G03 X17.8038 Y64.3662 I0.5398 J0.8097
G03 X17.9705 Y64.3140 I0.3333 J0.7719
G03 X18.1520 Y64.2959 I0.1815 J0.8977
G01 X18.1520 Y64.2959
G03 X18.3298 Y64.3138 I0.0000 J0.8882
G03 X18.4965 Y64.3662 I-0.1700 J0.8321
G03 X18.6505 Y64.4499 I-0.3858 J0.8934
G03 X18.7799 Y64.5552 I-0.4884 J0.7327
G03 X18.8867 Y64.6830 I-0.6019 J0.6113
G03 X18.9706 Y64.8348 I-0.7682 J0.5240
G03 X19.0228 Y64.9998 I-0.7515 J0.3283
G03 X19.0410 Y65.1812 I-0.8927 J0.1814
G01 X19.0410 Y65.1812
G03 X19.0230 Y65.3590 I-0.8882 J0.0000
G03 X18.9706 Y65.5256 I-0.8321 J-0.1700
G03 X18.8868 Y65.6796 I-0.8860 J-0.3826
G03 X18.7799 Y65.8109 I-0.7487 J-0.5008
G03 X18.6499 Y65.9192 I-0.6158 J-0.6064
G03 X18.4965 Y66.0035 I-0.5205 J-0.7658
G03 X18.3298 Y66.0559 I-0.3367 J-0.7797
G03 X18.1520 Y66.0739 I-0.1778 J-0.8702
G01 X18.1520 Y66.0739
G03 X17.9639 Y66.0537 I0.0000 J-0.8892
G03 X17.7927 Y65.9961 I0.1714 J-0.7917
G03 X17.6361 Y65.9044 I0.4132 J-0.8853
G03 X17.5038 Y65.7886 I0.5344 J-0.7443
G0Z0 ; pen up
G00 X21.5413 Y64.8293
G0Z6 ; pen down on paper
G01 X21.5413 Y64.3255
G01 X19.9374 Y64.3255
G01 X21.1820 Y65.5738
G03 X21.2728 Y65.6681 I-2.3943 J2.3943
G03 X21.3431 Y65.7479 I-1.6423 J1.5200
G03 X21.4073 Y65.8323 I-0.8258 J0.6944
G03 X21.4561 Y65.9127 I-0.6999 J0.4797
G03 X21.4946 Y65.9983 I-0.6204 J0.3309
G03 X21.5209 Y66.0868 I-0.6389 J0.2379
G03 X21.5358 Y66.1782 I-0.7515 J0.1687
G03 X21.5413 Y66.2887 I-1.0950 J0.1105
G01 X21.5413 Y66.2887
G03 X21.5341 Y66.3990 I-0.8438 J0.0000
G03 X21.5098 Y66.5276 I-1.1750 J-0.1548
G03 X21.4660 Y66.6496 I-0.6105 J-0.1504
G03 X21.3950 Y66.7665 I-0.6319 J-0.3037
G03 X21.3004 Y66.8642 I-0.4318 J-0.3238
G03 X21.1635 Y66.9518 I-0.4818 J-0.6023
G03 X21.0102 Y67.0040 I-0.2691 J-0.5382
G03 X20.7857 Y67.0258 I-0.2245 J-1.1450
G01 X20.7857 Y67.0258
G03 X20.5581 Y67.0023 I0.0000 J-1.1097
G03 X20.3967 Y66.9443 I0.1278 J-0.6100
G03 X20.2514 Y66.8502 I0.4370 J-0.8343
G03 X20.1448 Y66.7462 I0.4309 J-0.5476
G03 X20.0602 Y66.6231 I0.6560 J-0.5414
G03 X20.0078 Y66.5036 I0.5655 J-0.3195
G03 X19.9753 Y66.3763 I0.9965 J-0.3224
G03 X19.9670 Y66.2887 I0.4619 J-0.0876
G01 X19.9670 Y66.2887
G02 X19.9753 Y66.3763 I0.4701 J0.0000
G02 X20.0078 Y66.5036 I1.0290 J-0.1952
G02 X20.0602 Y66.6231 I0.6180 J-0.1999
G02 X20.1448 Y66.7462 I0.7406 J-0.4183
G02 X20.2514 Y66.8502 I0.5374 J-0.4436
G02 X20.3967 Y66.9443 I0.5824 J-0.7402
G02 X20.5581 Y67.0023 I0.2892 J-0.5521
G02 X20.7857 Y67.0258 I0.2276 J-1.0861
G01 X20.7857 Y67.0258
G02 X21.0102 Y67.0040 I0.0000 J-1.1668
G02 X21.1635 Y66.9518 I-0.1158 J-0.5905
G02 X21.3004 Y66.8642 I-0.3449 J-0.6899
G02 X21.3950 Y66.7665 I-0.3372 J-0.4215
G02 X21.4660 Y66.6496 I-0.5609 J-0.4207
G02 X21.5098 Y66.5276 I-0.5667 J-0.2724
G02 X21.5341 Y66.3990 I-1.1507 J-0.2835
G02 X21.5413 Y66.2887 I-0.8366 J-0.1102
G01 X21.5413 Y66.2887
G02 X21.5358 Y66.1782 I-1.1006 J0.0000
G02 X21.5209 Y66.0868 I-0.7663 J0.0773
G02 X21.4946 Y65.9983 I-0.6652 J0.1493
G02 X21.4561 Y65.9127 I-0.6590 J0.2454
G02 X21.4073 Y65.8323 I-0.7487 J0.3993
G02 X21.3431 Y65.7479 I-0.8900 J0.6100
G02 X21.2728 Y65.6681 I-1.7127 J1.4402
G02 X21.1820 Y65.5738 I-2.4850 J2.3000
G01 X21.1820 Y65.5738
G01 X19.9374 Y64.3255
G01 X21.5413 Y64.3255
G01 X21.5413 Y64.8293
G0Z0 ; pen up
G00 X22.4414 Y64.8626
G0Z6 ; pen down on paper
G01 X22.4414 Y64.8626
G03 X22.4613 Y64.7586 I0.2822 J0.0000
G03 X22.5266 Y64.6478 I0.3872 J0.1535
G03 X22.6196 Y64.5531 I0.5791 J0.4757
G03 X22.7396 Y64.4663 I0.6048 J0.7097
G03 X22.8712 Y64.3969 I0.6231 J1.0237
G03 X23.0156 Y64.3422 I0.5293 J1.1771
G03 X23.1654 Y64.3065 I0.3337 J1.0679
G03 X23.2934 Y64.2959 I0.1280 J0.7682
G01 X23.2934 Y64.2959
G03 X23.4216 Y64.3058 I0.0000 J0.8329
G03 X23.5786 Y64.3403 I-0.2002 J1.2846
G03 X23.7270 Y64.3989 I-0.2245 J0.7857
G03 X23.8675 Y64.4885 I-0.4068 J0.7933
G03 X23.9868 Y64.6042 I-0.4679 J0.6015
G03 X24.0898 Y64.7570 I-0.7231 J0.5985
G03 X24.1533 Y64.9283 I-0.5784 J0.3119
G03 X24.1787 Y65.1626 I-1.0693 J0.2344
G01 X24.1787 Y65.1626
G03 X24.1511 Y65.3921 I-0.9671 J0.0000
G03 X24.0805 Y65.5645 I-0.6105 J-0.1491
G03 X23.9684 Y65.7165 I-0.8241 J-0.4907
G03 X23.8398 Y65.8312 I-0.5929 J-0.5353
G03 X23.6908 Y65.9199 I-0.6057 J-0.8480
G03 X23.5397 Y65.9776 I-0.3975 J-0.8152
G03 X23.3810 Y66.0126 I-0.3827 J-1.3553
G03 X23.2638 Y66.0220 I-0.1172 J-0.7278
G01 X23.2638 Y66.0220
G03 X23.1457 Y66.0168 I0.0000 J-1.3387
G03 X23.0545 Y66.0035 I0.0720 J-0.8132
G03 X22.9658 Y65.9790 I0.1345 J-0.6590
G03 X22.8859 Y65.9442 I0.2004 J-0.5700
G03 X22.8118 Y65.8984 I0.2841 J-0.5423
G03 X22.7396 Y65.8387 I0.4136 J-0.5733
G03 X22.6738 Y65.7714 I0.8392 J-0.8872
G03 X22.5970 Y65.6812 I1.4313 J-1.2966
G01 X22.5970 Y65.6812
G01 X22.8044 Y66.9999
G01 X23.9898 Y66.9999
G01 X22.8044 Y66.9999
G01 X22.5970 Y65.6812
G02 X22.6738 Y65.7714 I1.5081 J-1.2064
G02 X22.7396 Y65.8387 I0.9051 J-0.8199
G02 X22.8118 Y65.8984 I0.4858 J-0.5136
G02 X22.8859 Y65.9442 I0.3582 J-0.4965
G02 X22.9658 Y65.9790 I0.2803 J-0.5352
G02 X23.0545 Y66.0035 I0.2231 J-0.6345
G02 X23.1457 Y66.0168 I0.1632 J-0.7999
G02 X23.2638 Y66.0220 I0.1180 J-1.3335
G01 X23.2638 Y66.0220
G02 X23.3810 Y66.0126 I0.0000 J-0.7372
G02 X23.5397 Y65.9776 I-0.2240 J-1.3904
G02 X23.6908 Y65.9199 I-0.2465 J-0.8729
G02 X23.8398 Y65.8312 I-0.4568 J-0.9367
G02 X23.9684 Y65.7165 I-0.4643 J-0.6500
G02 X24.0805 Y65.5645 I-0.7119 J-0.6427
G02 X24.1511 Y65.3921 I-0.5399 J-0.3215
G02 X24.1787 Y65.1626 I-0.9395 J-0.2295
G01 X24.1787 Y65.1626
G02 X24.1533 Y64.9283 I-1.0947 J0.0000
G02 X24.0898 Y64.7570 I-0.6419 J0.1407
G02 X23.9868 Y64.6042 I-0.8262 J0.4456
G02 X23.8675 Y64.4885 I-0.5871 J0.4859
G02 X23.7270 Y64.3989 I-0.5474 J0.7037
G02 X23.5786 Y64.3403 I-0.3729 J0.7271
G02 X23.4216 Y64.3058 I-0.3572 J1.2501
G02 X23.2934 Y64.2959 I-0.1283 J0.8230
G01 X23.2934 Y64.2959
G02 X23.1654 Y64.3065 I0.0000 J0.7788
G02 X23.0156 Y64.3422 I0.1839 J1.1036
G02 X22.8712 Y64.3969 I0.3849 J1.2318
G02 X22.7396 Y64.4663 I0.4915 J1.0930
G02 X22.6196 Y64.5531 I0.4848 J0.7965
G02 X22.5266 Y64.6478 I0.4861 J0.5704
G02 X22.4613 Y64.7586 I0.3218 J0.2644
G02 X22.4414 Y64.8626 I0.2623 J0.1040
G0Z0 ; pen up
G00 X25.3344 Y65.7886
G0Z6 ; pen down on paper
G01 X25.3344 Y65.7886
G02 X25.4667 Y65.9044 I0.6667 J-0.6286
G02 X25.6233 Y65.9961 I0.5698 J-0.7936
G02 X25.7945 Y66.0537 I0.3426 J-0.7340
G02 X25.9826 Y66.0739 I0.1882 J-0.8691
G01 X25.9826 Y66.0739
G02 X26.1604 Y66.0559 I0.0000 J-0.8882
G02 X26.3271 Y66.0035 I-0.1700 J-0.8321
G02 X26.4806 Y65.9192 I-0.3671 J-0.8501
G02 X26.6105 Y65.8109 I-0.4858 J-0.7147
G02 X26.7174 Y65.6796 I-0.6418 J-0.6321
G02 X26.8012 Y65.5256 I-0.8022 J-0.5365
G02 X26.8536 Y65.3590 I-0.7797 J-0.3367
G02 X26.8716 Y65.1812 I-0.8702 J-0.1778
G01 X26.8716 Y65.1812
G02 X26.8534 Y64.9998 I-0.9109 J0.0000
G02 X26.8012 Y64.8348 I-0.8037 J0.1633
G02 X26.7173 Y64.6830 I-0.8521 J0.3722
G02 X26.6105 Y64.5552 I-0.7087 J0.4834
G02 X26.4811 Y64.4499 I-0.6178 J0.6275
G02 X26.3271 Y64.3662 I-0.5398 J0.8097
G02 X26.1604 Y64.3138 I-0.3367 J0.7797
G02 X25.9826 Y64.2959 I-0.1778 J0.8702
G01 X25.9826 Y64.2959
G02 X25.8012 Y64.3140 I0.0000 J0.9159
G02 X25.6344 Y64.3662 I0.1666 J0.8241
G02 X25.4804 Y64.4499 I0.3858 J0.8934
G02 X25.3511 Y64.5552 I0.4884 J0.7327
G02 X25.2442 Y64.6830 I0.6019 J0.6113
G02 X25.1603 Y64.8348 I0.7682 J0.5240
G02 X25.1082 Y64.9998 I0.7515 J0.3283
G02 X25.0899 Y65.1812 I0.8927 J0.1814
G01 X25.0899 Y65.1812
G02 X25.1035 Y65.3305 I0.8293 J0.0000
G02 X25.1418 Y65.4645 I0.7058 J-0.1292
G02 X25.1997 Y65.5929 I1.3514 J-0.5330
G02 X25.2677 Y65.7109 I1.2087 J-0.6180
G01 X25.2677 Y65.7109
G01 X26.1567 Y67.0110
G01 X25.2677 Y65.7109
G03 X25.1997 Y65.5929 I1.1407 J-0.7359
G03 X25.1418 Y65.4645 I1.2935 J-0.6613
G03 X25.1035 Y65.3305 I0.6675 J-0.2632
G03 X25.0899 Y65.1812 I0.8158 J-0.1493
G01 X25.0899 Y65.1812
G03 X25.1082 Y64.9998 I0.9109 J0.0000
G03 X25.1603 Y64.8348 I0.8037 J0.1633
G03 X25.2442 Y64.6830 I0.8521 J0.3722
G03 X25.3511 Y64.5552 I0.7087 J0.4834
G03 X25.4804 Y64.4499 I0.6178 J0.6275
G03 X25.6344 Y64.3662 I0.5398 J0.8097
G03 X25.8012 Y64.3140 I0.3333 J0.7719
G03 X25.9826 Y64.2959 I0.1815 J0.8977
G01 X25.9826 Y64.2959
G03 X26.1604 Y64.3138 I0.0000 J0.8882
G03 X26.3271 Y64.3662 I-0.1700 J0.8321
G03 X26.4811 Y64.4499 I-0.3858 J0.8934
G03 X26.6105 Y64.5552 I-0.4884 J0.7327
G03 X26.7173 Y64.6830 I-0.6019 J0.6113
G03 X26.8012 Y64.8348 I-0.7682 J0.5240
G03 X26.8534 Y64.9998 I-0.7515 J0.3283
G03 X26.8716 Y65.1812 I-0.8927 J0.1814
G01 X26.8716 Y65.1812
G03 X26.8536 Y65.3590 I-0.8882 J0.0000
G03 X26.8012 Y65.5256 I-0.8321 J-0.1700
G03 X26.7174 Y65.6796 I-0.8860 J-0.3826
G03 X26.6105 Y65.8109 I-0.7487 J-0.5008
G03 X26.4806 Y65.9192 I-0.6158 J-0.6064
G03 X26.3271 Y66.0035 I-0.5205 J-0.7658
G03 X26.1604 Y66.0559 I-0.3367 J-0.7797
G03 X25.9826 Y66.0739 I-0.1778 J-0.8702
G01 X25.9826 Y66.0739
G03 X25.7945 Y66.0537 I0.0000 J-0.8892
G03 X25.6233 Y65.9961 I0.1714 J-0.7917
G03 X25.4667 Y65.9044 I0.4132 J-0.8853
G03 X25.3344 Y65.7886 I0.5344 J-0.7443
G0Z0 ; pen up
G00 X29.7016 Y64.3181
G0Z6 ; pen down on paper
G01 X29.7016 Y64.5478
G03 X29.8253 Y64.4422 I0.6156 J0.5964
G03 X29.9553 Y64.3700 I0.4112 J0.5868
G03 X30.0976 Y64.3273 I0.2603 J0.6101
G03 X30.2832 Y64.3107 I0.1855 J1.0261
G01 X30.2832 Y64.3107
G03 X30.3752 Y64.3161 I0.0000 J0.7912
G03 X30.4887 Y64.3348 I-0.1434 J1.2243
G03 X30.5983 Y64.3676 I-0.1464 J0.6869
G03 X30.7017 Y64.4181 I-0.2593 J0.6625
G03 X30.7931 Y64.4866 I-0.2702 J0.4559
G03 X30.8684 Y64.5737 I-0.3672 J0.3934
G03 X30.9165 Y64.6758 I-0.2813 J0.1948
G03 X30.9351 Y64.8107 I-0.4798 J0.1349
G01 X30.9351 Y64.8107
G03 X30.9220 Y64.9335 I-0.5826 J0.0000
G03 X30.8888 Y65.0256 I-0.3583 J-0.0772
G03 X30.8360 Y65.1095 I-0.5389 J-0.2807
G03 X30.7777 Y65.1738 I-0.3725 J-0.2794
G03 X30.7092 Y65.2275 I-0.3932 J-0.4300
G03 X30.6425 Y65.2645 I-0.2498 J-0.3722
G03 X30.5711 Y65.2932 I-0.4150 J-0.9277
G03 X30.5239 Y65.3071 I-0.1409 J-0.3921
G01 X30.5239 Y65.3071
G01 X30.0535 Y65.4071
G02 X30.0168 Y65.4159 I0.0970 J0.4851
G02 X29.9479 Y65.4368 I0.4868 J1.7341
G02 X29.8818 Y65.4638 I0.1471 J0.4537
G02 X29.8109 Y65.5053 I0.2815 J0.5630
G02 X29.7484 Y65.5576 I0.2215 J0.3278
G02 X29.6905 Y65.6294 I0.3637 J0.3528
G02 X29.6536 Y65.7117 I0.2255 J0.1504
G02 X29.6386 Y65.8294 I0.4540 J0.1177
G01 X29.6386 Y65.8294
G02 X29.6534 Y65.9475 I0.4791 J0.0000
G02 X29.6923 Y66.0405 I0.3332 J-0.0848
G02 X29.7546 Y66.1211 I0.3815 J-0.2305
G02 X29.8331 Y66.1850 I0.3155 J-0.3074
G02 X29.9234 Y66.2332 I0.3529 J-0.5529
G02 X30.0239 Y66.2683 I0.2840 J-0.6500
G02 X30.1285 Y66.2894 I0.2189 J-0.8173
G02 X30.2276 Y66.2961 I0.0991 J-0.7269
G01 X30.2276 Y66.2961
G02 X30.4252 Y66.2725 I0.0000 J-0.8391
G02 X30.5869 Y66.2091 I-0.1506 J-0.6217
G02 X30.7234 Y66.1044 I-0.2928 J-0.5233
G02 X30.8054 Y65.9850 I-0.3047 J-0.2971
G01 X30.8054 Y65.9850
G01 X30.8054 Y65.8887
G01 X30.8054 Y66.2813
G01 X30.8054 Y65.9850
G03 X30.7234 Y66.1044 I-0.3867 J-0.1777
G03 X30.5869 Y66.2091 I-0.4293 J-0.4187
G03 X30.4252 Y66.2725 I-0.3123 J-0.5582
G03 X30.2276 Y66.2961 I-0.1976 J-0.8155
G01 X30.2276 Y66.2961
G03 X30.1285 Y66.2894 I0.0000 J-0.7337
G03 X30.0239 Y66.2683 I0.1143 J-0.8384
G03 X29.9234 Y66.2332 I0.1835 J-0.6852
G03 X29.8331 Y66.1850 I0.2626 J-0.6010
G03 X29.7546 Y66.1211 I0.2370 J-0.3713
G03 X29.6923 Y66.0405 I0.3192 J-0.3110
G03 X29.6534 Y65.9475 I0.2942 J-0.1778
G03 X29.6386 Y65.8294 I0.4643 J-0.1181
G01 X29.6386 Y65.8294
G03 X29.6536 Y65.7117 I0.4690 J0.0000
G03 X29.6905 Y65.6294 I0.2624 J0.0680
G03 X29.7484 Y65.5576 I0.4216 J0.2811
G03 X29.8109 Y65.5053 I0.2840 J0.2755
G03 X29.8818 Y65.4638 I0.3524 J0.5215
G03 X29.9479 Y65.4368 I0.2133 J0.4266
G03 X30.0168 Y65.4159 I0.5557 J1.7133
G03 X30.0535 Y65.4071 I0.1337 J0.4763
G01 X30.0535 Y65.4071
G01 X30.5239 Y65.3071
G02 X30.5711 Y65.2932 I-0.0937 J-0.4060
G02 X30.6425 Y65.2645 I-0.3437 J-0.9564
G02 X30.7092 Y65.2275 I-0.1830 J-0.4092
G02 X30.7777 Y65.1738 I-0.3247 J-0.4838
G02 X30.8360 Y65.1095 I-0.3142 J-0.3436
G02 X30.8888 Y65.0256 I-0.4861 J-0.3646
G02 X30.9220 Y64.9335 I-0.3251 J-0.1693
G02 X30.9351 Y64.8107 I-0.5695 J-0.1227
G01 X30.9351 Y64.8107
G02 X30.9165 Y64.6758 I-0.4984 J0.0000
G02 X30.8684 Y64.5737 I-0.3294 J0.0926
G02 X30.7931 Y64.4866 I-0.4424 J0.3063
G02 X30.7017 Y64.4181 I-0.3616 J0.3874
G02 X30.5983 Y64.3676 I-0.3627 J0.6121
G02 X30.4887 Y64.3348 I-0.2559 J0.6541
G02 X30.3752 Y64.3161 I-0.2569 J1.2056
G02 X30.2832 Y64.3107 I-0.0920 J0.7859
G01 X30.2832 Y64.3107
G02 X30.0976 Y64.3273 I0.0000 J1.0427
G02 X29.9553 Y64.3700 I0.1180 J0.6528
G02 X29.8253 Y64.4422 I0.2812 J0.6590
G02 X29.7016 Y64.5478 I0.4919 J0.7019
G01 X29.7016 Y64.5478
G01 X29.7016 Y64.7255
G01 X29.7016 Y64.3181
G0Z0 ; pen up
G00 X33.6836 Y64.8070
G0Z6 ; pen down on paper
G01 X33.6836 Y64.8070
G02 X33.5299 Y64.6088 I-0.8278 J0.4829
G02 X33.3224 Y64.4496 I-0.7330 J0.7406
G02 X33.0814 Y64.3494 I-0.4906 J0.8400
G02 X32.8131 Y64.3144 I-0.2683 J1.0109
G01 X32.8131 Y64.3144
G02 X32.6097 Y64.3344 I0.0000 J1.0417
G02 X32.4223 Y64.3922 I0.1873 J0.9411
G02 X32.2490 Y64.4851 I0.4239 J0.9992
G02 X32.1019 Y64.6033 I0.5501 J0.8348
G02 X31.9801 Y64.7473 I0.6805 J0.6994
G02 X31.8852 Y64.9163 I0.8478 J0.5869
G02 X31.8261 Y65.1003 I0.8332 J0.3694
G02 X31.8056 Y65.2997 I0.9599 J0.1994
G01 X31.8056 Y65.2997
G02 X31.8260 Y65.4991 I0.9852 J0.0000
G02 X31.8852 Y65.6849 I0.9126 J-0.1887
G02 X31.9801 Y65.8559 I0.9613 J-0.4218
G02 X32.1019 Y66.0016 I0.8169 J-0.5589
G02 X32.2493 Y66.1214 I0.6960 J-0.7055
G02 X32.4223 Y66.2146 I0.5876 J-0.8839
G02 X32.6097 Y66.2724 I0.3748 J-0.8834
G02 X32.8131 Y66.2924 I0.2034 J-1.0216
G01 X32.8131 Y66.2924
G02 X33.0680 Y66.2610 I0.0000 J-1.0511
G02 X33.2946 Y66.1720 I-0.2291 J-0.9162
G02 X33.4938 Y66.0303 I-0.5142 J-0.9334
G02 X33.6502 Y65.8516 I-0.6732 J-0.7471
G01 X33.6502 Y65.8516
G01 X33.6502 Y66.1702
G01 X33.6502 Y65.8516
G03 X33.4938 Y66.0303 I-0.8296 J-0.5684
G03 X33.2946 Y66.1720 I-0.7134 J-0.7917
G03 X33.0680 Y66.2610 I-0.4557 J-0.8272
G03 X32.8131 Y66.2924 I-0.2549 J-1.0197
G01 X32.8131 Y66.2924
G03 X32.6097 Y66.2724 I0.0000 J-1.0417
G03 X32.4223 Y66.2146 I0.1873 J-0.9411
G03 X32.2493 Y66.1214 I0.4145 J-0.9771
G03 X32.1019 Y66.0016 I0.5486 J-0.8253
G03 X31.9801 Y65.8559 I0.6951 J-0.7047
G03 X31.8852 Y65.6849 I0.8664 J-0.5928
G03 X31.8260 Y65.4991 I0.8534 J-0.3745
G03 X31.8056 Y65.2997 I0.9648 J-0.1995
G01 X31.8056 Y65.2997
G03 X31.8261 Y65.1003 I0.9803 J0.0000
G03 X31.8852 Y64.9163 I0.8924 J0.1854
G03 X31.9801 Y64.7473 I0.9426 J0.4179
G03 X32.1019 Y64.6033 I0.8023 J0.5555
G03 X32.2490 Y64.4851 I0.6972 J0.7166
G03 X32.4223 Y64.3922 I0.5972 J0.9063
G03 X32.6097 Y64.3344 I0.3748 J0.8834
G03 X32.8131 Y64.3144 I0.2034 J1.0216
G01 X32.8131 Y64.3144
G03 X33.0814 Y64.3494 I0.0000 J1.0459
G03 X33.3224 Y64.4496 I-0.2496 J0.9402
G03 X33.5299 Y64.6088 I-0.5255 J0.8998
G03 X33.6836 Y64.8070 I-0.6742 J0.6811
G0Z0 ; pen up
G00 X35.1986 Y65.5960
G0Z6 ; pen down on paper
G01 X35.1986 Y65.5960
G02 X35.2138 Y65.7258 I0.5620 J0.0000
G02 X35.2597 Y65.8535 I0.5889 J-0.1398
G02 X35.3313 Y65.9697 I0.6504 J-0.3203
G02 X35.4245 Y66.0720 I0.5955 J-0.4491
G02 X35.5350 Y66.1558 I0.5211 J-0.5722
G02 X35.6672 Y66.2239 I0.4719 J-0.7538
G02 X35.8090 Y66.2666 I0.2842 J-0.6876
G02 X35.9616 Y66.2813 I0.1526 J-0.7829
G01 X35.9616 Y66.2813
G02 X36.1158 Y66.2710 I0.0000 J-1.1626
G02 X36.2524 Y66.2424 I-0.1259 J-0.9413
G02 X36.3802 Y66.1900 I-0.1758 J-0.6112
G02 X36.4876 Y66.1146 I-0.2743 J-0.5049
G02 X36.5731 Y66.0158 I-0.3327 J-0.3743
G02 X36.6414 Y65.8813 I-0.5573 J-0.3671
G02 X36.6786 Y65.7340 I-0.6597 J-0.2453
G02 X36.6914 Y65.5256 I-1.3157 J-0.1850
G01 X36.6914 Y65.5256
G01 X36.6914 Y64.3255
G01 X36.2913 Y64.3255
G01 X37.0877 Y64.3255
G01 X36.6914 Y64.3255
G01 X36.6914 Y65.5256
G03 X36.6786 Y65.7340 I-1.3285 J0.0233
G03 X36.6414 Y65.8813 I-0.6970 J-0.0980
G03 X36.5731 Y66.0158 I-0.6255 J-0.2326
G03 X36.4876 Y66.1146 I-0.4183 J-0.2755
G03 X36.3802 Y66.1900 I-0.3817 J-0.4295
G03 X36.2524 Y66.2424 I-0.3036 J-0.5588
G03 X36.1158 Y66.2710 I-0.2626 J-0.9127
G03 X35.9616 Y66.2813 I-0.1541 J-1.1523
G01 X35.9616 Y66.2813
G03 X35.8090 Y66.2666 I0.0000 J-0.7977
G03 X35.6672 Y66.2239 I0.1424 J-0.7303
G03 X35.5350 Y66.1558 I0.3397 J-0.8219
G03 X35.4245 Y66.0720 I0.4106 J-0.6560
G03 X35.3313 Y65.9697 I0.5022 J-0.5514
G03 X35.2597 Y65.8535 I0.5788 J-0.4366
G03 X35.2138 Y65.7258 I0.5430 J-0.2674
G03 X35.1986 Y65.5960 I0.5468 J-0.1298
G0Z0 ; pen up
G00 X34.8022 Y64.3255
G0Z6 ; pen down on paper
G01 X35.5949 Y64.3255
G01 X35.1986 Y64.3255
G01 X35.1986 Y66.9703
G01 X34.8022 Y66.9703
G01 X35.1986 Y66.9703
G01 X35.1986 Y64.3255
G01 X34.8022 Y64.3255
G0Z0 ; pen up
G00 X39.2176 Y64.2959
G0Z6 ; pen down on paper
G01 X39.2176 Y64.2959
G02 X39.0180 Y64.3159 I0.0000 J1.0037
G02 X38.8342 Y64.3737 I0.1841 J0.9075
G02 X38.6648 Y64.4666 I0.4130 J0.9538
G02 X38.5194 Y64.5866 I0.5553 J0.8208
G02 X38.3997 Y64.7324 I0.6810 J0.6810
G02 X38.3064 Y64.9052 I0.8694 J0.5813
G02 X38.2486 Y65.0926 I0.8834 J0.3748
G02 X38.2286 Y65.2960 I1.0216 J0.2034
G01 X38.2286 Y65.2960
G02 X38.2486 Y65.4993 I1.0417 J0.0000
G02 X38.3064 Y65.6868 I0.9411 J-0.1873
G02 X38.3996 Y65.8598 I0.9771 J-0.4145
G02 X38.5194 Y66.0072 I0.8253 J-0.5486
G02 X38.6650 Y66.1292 I0.7150 J-0.7054
G02 X38.8342 Y66.2239 I0.5935 J-0.8624
G02 X39.0182 Y66.2830 I0.3694 J-0.8332
G02 X39.2176 Y66.3035 I0.1994 J-0.9599
G01 X39.2176 Y66.3035
G02 X39.4170 Y66.2830 I0.0000 J-0.9803
G02 X39.6010 Y66.2239 I-0.1854 J-0.8924
G02 X39.7700 Y66.1290 I-0.4179 J-0.9426
G02 X39.9140 Y66.0072 I-0.5555 J-0.8023
G02 X40.0322 Y65.8601 I-0.7166 J-0.6972
G02 X40.1251 Y65.6868 I-0.9063 J-0.5972
G02 X40.1829 Y65.4993 I-0.8834 J-0.3748
G02 X40.2029 Y65.2960 I-1.0216 J-0.2034
G01 X40.2029 Y65.2960
G02 X40.1829 Y65.0926 I-1.0417 J0.0000
G02 X40.1251 Y64.9052 I-0.9411 J0.1873
G02 X40.0320 Y64.7321 I-0.9843 J0.4176
G02 X39.9140 Y64.5866 I-0.8095 J0.5365
G02 X39.7702 Y64.4667 I-0.6855 J0.6761
G02 X39.6010 Y64.3737 I-0.5760 J0.8464
G02 X39.4172 Y64.3159 I-0.3679 J0.8498
G02 X39.2176 Y64.2959 I-0.1996 J0.9836
G0Z0 ; pen up
G00 X39.2176 Y64.2959
G0Z6 ; pen down on paper
G01 X39.2176 Y64.2959
G02 X39.0180 Y64.3159 I0.0000 J1.0037
G02 X38.8342 Y64.3737 I0.1841 J0.9075
G02 X38.6648 Y64.4666 I0.4130 J0.9538
G02 X38.5194 Y64.5866 I0.5553 J0.8208
G02 X38.3997 Y64.7324 I0.6810 J0.6810
G02 X38.3064 Y64.9052 I0.8694 J0.5813
G02 X38.2486 Y65.0926 I0.8834 J0.3748
G02 X38.2286 Y65.2960 I1.0216 J0.2034
G01 X38.2286 Y65.2960
G02 X38.2486 Y65.4993 I1.0417 J0.0000
G02 X38.3064 Y65.6868 I0.9411 J-0.1873
G02 X38.3996 Y65.8598 I0.9771 J-0.4145
G02 X38.5194 Y66.0072 I0.8253 J-0.5486
G02 X38.6650 Y66.1292 I0.7150 J-0.7054
G02 X38.8342 Y66.2239 I0.5935 J-0.8624
G02 X39.0182 Y66.2830 I0.3694 J-0.8332
G02 X39.2176 Y66.3035 I0.1994 J-0.9599
G01 X39.2176 Y66.3035
G02 X39.4170 Y66.2830 I0.0000 J-0.9803
G02 X39.6010 Y66.2239 I-0.1854 J-0.8924
G02 X39.7700 Y66.1290 I-0.4179 J-0.9426
G02 X39.9140 Y66.0072 I-0.5555 J-0.8023
G02 X40.0322 Y65.8601 I-0.7166 J-0.6972
G02 X40.1251 Y65.6868 I-0.9063 J-0.5972
G02 X40.1829 Y65.4993 I-0.8834 J-0.3748
G02 X40.2029 Y65.2960 I-1.0216 J-0.2034
G01 X40.2029 Y65.2960
G02 X40.1829 Y65.0926 I-1.0417 J0.0000
G02 X40.1251 Y64.9052 I-0.9411 J0.1873
G02 X40.0320 Y64.7321 I-0.9843 J0.4176
G02 X39.9140 Y64.5866 I-0.8095 J0.5365
G02 X39.7702 Y64.4667 I-0.6855 J0.6761
G02 X39.6010 Y64.3737 I-0.5760 J0.8464
G02 X39.4172 Y64.3159 I-0.3679 J0.8498
G02 X39.2176 Y64.2959 I-0.1996 J0.9836
G0Z0 ; pen up
G00 X42.1772 Y64.3255
G0Z6 ; pen down on paper
G01 X41.6327 Y64.3255
G01 X41.6327 Y66.2665
G01 X42.0254 Y66.2665
G01 X41.6327 Y66.2665
G01 X41.6327 Y66.9703
G01 X41.6327 Y66.2665
G01 X41.2401 Y66.2665
G01 X41.6327 Y66.2665
G01 X41.6327 Y64.3255
G01 X42.1772 Y64.3255
G0Z0 ; pen up
G00 X44.2997 Y64.3255
G0Z6 ; pen down on paper
G01 X43.7552 Y64.3255
G01 X43.7552 Y66.2665
G01 X44.1478 Y66.2665
G01 X43.7552 Y66.2665
G01 X43.7552 Y66.9703
G01 X43.7552 Y66.2665
G01 X43.3626 Y66.2665
G01 X43.7552 Y66.2665
G01 X43.7552 Y64.3255
G01 X44.2997 Y64.3255
G0Z0 ; pen up
G00 X47.1927 Y64.8107
G0Z6 ; pen down on paper
G01 X47.1927 Y64.8107
G02 X47.0388 Y64.6086 I-0.8519 J0.4888
G02 X46.8352 Y64.4496 I-0.7223 J0.7149
G02 X46.5977 Y64.3496 I-0.4809 J0.8102
G02 X46.3296 Y64.3144 I-0.2681 J1.0028
G01 X46.3296 Y64.3144
G02 X46.1263 Y64.3345 I0.0000 J1.0366
G02 X45.9407 Y64.3922 I0.1841 J0.9203
G02 X45.7696 Y64.4853 I0.4107 J0.9582
G02 X45.6240 Y64.6052 I0.5451 J0.8106
G02 X45.5037 Y64.7506 I0.7057 J0.7057
G02 X45.4091 Y64.9219 I0.8881 J0.6025
G02 X45.3499 Y65.1077 I0.8534 J0.3745
G02 X45.3295 Y65.3071 I0.9648 J0.1995
G01 X45.3295 Y65.3071
G02 X45.3500 Y65.5103 I1.0175 J0.0000
G02 X45.4091 Y65.6979 I0.9252 J-0.1885
G02 X45.5040 Y65.8709 I0.9871 J-0.4287
G02 X45.6240 Y66.0165 I0.8156 J-0.5501
G02 X45.7694 Y66.1367 I0.7057 J-0.7057
G02 X45.9407 Y66.2313 I0.6025 J-0.8881
G02 X46.1265 Y66.2904 I0.3711 J-0.8457
G02 X46.3296 Y66.3109 I0.2031 J-0.9920
G01 X46.3296 Y66.3109
G02 X46.5291 Y66.2905 I0.0000 J-0.9852
G02 X46.7148 Y66.2313 I-0.1887 J-0.9126
G02 X46.8863 Y66.1369 I-0.4379 J-0.9979
G02 X47.0334 Y66.0165 I-0.5746 J-0.8520
G02 X47.1546 Y65.8705 I-0.6712 J-0.6804
G02 X47.2482 Y65.6979 I-0.8486 J-0.5723
G02 X47.3060 Y65.5105 I-0.8834 J-0.3748
G02 X47.3260 Y65.3071 I-1.0216 J-0.2034
G01 X47.3260 Y65.3071
G01 X45.3369 Y65.3071
G01 X47.3260 Y65.3071
G03 X47.3060 Y65.5105 I-1.0417 J0.0000
G03 X47.2482 Y65.6979 I-0.9411 J-0.1873
G03 X47.1546 Y65.8705 I-0.9423 J-0.3998
G03 X47.0334 Y66.0165 I-0.7923 J-0.5344
G03 X46.8863 Y66.1369 I-0.7217 J-0.7316
G03 X46.7148 Y66.2313 I-0.6093 J-0.9035
G03 X46.5291 Y66.2905 I-0.3745 J-0.8534
G03 X46.3296 Y66.3109 I-0.1995 J-0.9648
G01 X46.3296 Y66.3109
G03 X46.1265 Y66.2904 I0.0000 J-1.0125
G03 X45.9407 Y66.2313 I0.1853 J-0.9048
G03 X45.7694 Y66.1367 I0.4312 J-0.9828
G03 X45.6240 Y66.0165 I0.5603 J-0.8260
G03 X45.5040 Y65.8709 I0.6956 J-0.6956
G03 X45.4091 Y65.6979 I0.8922 J-0.6017
G03 X45.3500 Y65.5103 I0.8660 J-0.3762
G03 X45.3295 Y65.3071 I0.9970 J-0.2032
G01 X45.3295 Y65.3071
G03 X45.3499 Y65.1077 I0.9852 J0.0000
G03 X45.4091 Y64.9219 I0.9126 J0.1887
G03 X45.5037 Y64.7506 I0.9828 J0.4312
G03 X45.6240 Y64.6052 I0.8260 J0.5603
G03 X45.7696 Y64.4853 I0.6907 J0.6907
G03 X45.9407 Y64.3922 I0.5818 J0.8651
G03 X46.1263 Y64.3345 I0.3697 J0.8626
G03 X46.3296 Y64.3144 I0.2033 J1.0165
G01 X46.3296 Y64.3144
G03 X46.5977 Y64.3496 I0.0000 J1.0380
G03 X46.8352 Y64.4496 I-0.2434 J0.9102
G03 X47.0388 Y64.6086 I-0.5187 J0.8739
G03 X47.1927 Y64.8107 I-0.6981 J0.6909
G0Z0 ; pen up
G00 X49.5744 Y66.2776
G0Z6 ; pen down on paper
G01 X49.5744 Y66.2776
G03 X49.4509 Y66.2653 I0.0000 J-0.6259
G03 X49.3170 Y66.2257 I0.1560 J-0.7745
G03 X49.1897 Y66.1662 I0.4152 J-1.0527
G03 X49.0762 Y66.0942 I0.4962 J-0.9084
G03 X48.9736 Y66.0079 I0.5652 J-0.7755
G03 X48.8966 Y65.9201 I0.5060 J-0.5221
G03 X48.8410 Y65.8208 I0.3524 J-0.2625
G03 X48.8262 Y65.7442 I0.1915 J-0.0766
G01 X48.8262 Y65.7442
G01 X48.8262 Y66.2665
G01 X48.4336 Y66.2665
G01 X48.8262 Y66.2665
G01 X48.8262 Y64.3255
G01 X48.4336 Y64.3255
G01 X49.2226 Y64.3255
G01 X48.8262 Y64.3255
G01 X48.8262 Y65.7442
G02 X48.8410 Y65.8208 I0.2063 J0.0000
G02 X48.8966 Y65.9201 I0.4080 J-0.1632
G02 X48.9736 Y66.0079 I0.5830 J-0.4344
G02 X49.0762 Y66.0942 I0.6678 J-0.6891
G02 X49.1897 Y66.1662 I0.6097 J-0.8365
G02 X49.3170 Y66.2257 I0.5424 J-0.9932
G02 X49.4509 Y66.2653 I0.2899 J-0.7350
G02 X49.5744 Y66.2776 I0.1236 J-0.6136
G0Z0 ; pen up
G00 X53.4601 Y64.2885
G0Z6 ; pen down on paper
G01 X53.4601 Y64.2885
G02 X53.2682 Y64.3088 I0.0000 J0.9175
G02 X53.0879 Y64.3681 I0.1857 J0.8680
G02 X52.9227 Y64.4629 I0.4101 J0.9061
G02 X52.7823 Y64.5848 I0.5487 J0.7738
G02 X52.6675 Y64.7315 I0.7240 J0.6849
G02 X52.5767 Y64.9052 I0.9290 J0.5961
G02 X52.5203 Y65.0925 I0.9016 J0.3734
G02 X52.5007 Y65.2960 I1.0475 J0.2035
G01 X52.5007 Y65.2960
G02 X52.5202 Y65.4996 I1.0722 J0.0000
G02 X52.5767 Y65.6886 I0.9796 J-0.1895
G02 X52.6677 Y65.8641 I1.0246 J-0.4201
G02 X52.7823 Y66.0109 I0.8284 J-0.5285
G02 X52.9227 Y66.1328 I0.6891 J-0.6519
G02 X53.0879 Y66.2276 I0.5753 J-0.8113
G02 X53.2682 Y66.2869 I0.3660 J-0.8086
G02 X53.4601 Y66.3072 I0.1919 J-0.8972
G01 X53.4601 Y66.3072
G02 X53.6520 Y66.2868 I0.0000 J-0.9128
G02 X53.8305 Y66.2276 I-0.1824 J-0.8482
G02 X53.9940 Y66.1331 I-0.4126 J-0.9020
G02 X54.1343 Y66.0109 I-0.5592 J-0.7839
G02 X54.2488 Y65.8641 I-0.7139 J-0.6753
G02 X54.3399 Y65.6886 I-0.9336 J-0.5955
G02 X54.3963 Y65.4996 I-0.9232 J-0.3785
G02 X54.4158 Y65.2960 I-1.0527 J-0.2036
G01 X54.4158 Y65.2960
G02 X54.3962 Y65.0925 I-1.0671 J0.0000
G02 X54.3399 Y64.9052 I-0.9580 J0.1861
G02 X54.2491 Y64.7315 I-1.0198 J0.4223
G02 X54.1343 Y64.5848 I-0.8388 J0.5382
G02 X53.9940 Y64.4626 I-0.6995 J0.6617
G02 X53.8305 Y64.3681 I-0.5761 J0.8075
G02 X53.6520 Y64.3089 I-0.3609 J0.7889
G02 X53.4601 Y64.2885 I-0.1919 J0.8925
G0Z0 ; pen up
G00 X53.4601 Y64.2885
G0Z6 ; pen down on paper
G01 X53.4601 Y64.2885
G02 X53.2682 Y64.3088 I0.0000 J0.9175
G02 X53.0879 Y64.3681 I0.1857 J0.8680
G02 X52.9227 Y64.4629 I0.4101 J0.9061
G02 X52.7823 Y64.5848 I0.5487 J0.7738
G02 X52.6675 Y64.7315 I0.7240 J0.6849
G02 X52.5767 Y64.9052 I0.9290 J0.5961
G02 X52.5203 Y65.0925 I0.9016 J0.3734
G02 X52.5007 Y65.2960 I1.0475 J0.2035
G01 X52.5007 Y65.2960
G02 X52.5202 Y65.4996 I1.0722 J0.0000
G02 X52.5767 Y65.6886 I0.9796 J-0.1895
G02 X52.6677 Y65.8641 I1.0246 J-0.4201
G02 X52.7823 Y66.0109 I0.8284 J-0.5285
G02 X52.9227 Y66.1328 I0.6891 J-0.6519
G02 X53.0879 Y66.2276 I0.5753 J-0.8113
G02 X53.2682 Y66.2869 I0.3660 J-0.8086
G02 X53.4601 Y66.3072 I0.1919 J-0.8972
G01 X53.4601 Y66.3072
G02 X53.6520 Y66.2868 I0.0000 J-0.9128
G02 X53.8305 Y66.2276 I-0.1824 J-0.8482
G02 X53.9940 Y66.1331 I-0.4126 J-0.9020
G02 X54.1343 Y66.0109 I-0.5592 J-0.7839
G02 X54.2488 Y65.8641 I-0.7139 J-0.6753
G02 X54.3399 Y65.6886 I-0.9336 J-0.5955
G02 X54.3963 Y65.4996 I-0.9232 J-0.3785
G02 X54.4158 Y65.2960 I-1.0527 J-0.2036
G01 X54.4158 Y65.2960
G02 X54.3962 Y65.0925 I-1.0671 J0.0000
G02 X54.3399 Y64.9052 I-0.9580 J0.1861
G02 X54.2491 Y64.7315 I-1.0198 J0.4223
G02 X54.1343 Y64.5848 I-0.8388 J0.5382
G02 X53.9940 Y64.4626 I-0.6995 J0.6617
G02 X53.8305 Y64.3681 I-0.5761 J0.8075
G02 X53.6520 Y64.3089 I-0.3609 J0.7889
G02 X53.4601 Y64.2885 I-0.1919 J0.8925
G0Z0 ; pen up
G00 X54.0528 Y66.9740
G0Z6 ; pen down on paper
G01 X54.4158 Y66.9740
G01 X54.4158 Y64.3255
G01 X54.8121 Y64.3255
G01 X54.4158 Y64.3255
G01 X54.4158 Y66.9740
G01 X54.0528 Y66.9740
G0Z0 ; pen up
G00 X57.7681 Y64.8107
G0Z6 ; pen down on paper
G01 X57.7681 Y64.8107
G02 X57.6142 Y64.6086 I-0.8519 J0.4888
G02 X57.4106 Y64.4496 I-0.7223 J0.7149
G02 X57.1731 Y64.3496 I-0.4809 J0.8102
G02 X56.9050 Y64.3144 I-0.2681 J1.0028
G01 X56.9050 Y64.3144
G02 X56.7017 Y64.3345 I0.0000 J1.0366
G02 X56.5161 Y64.3922 I0.1841 J0.9203
G02 X56.3449 Y64.4853 I0.4107 J0.9582
G02 X56.1994 Y64.6052 I0.5451 J0.8106
G02 X56.0791 Y64.7506 I0.7057 J0.7057
G02 X55.9845 Y64.9219 I0.8881 J0.6025
G02 X55.9253 Y65.1077 I0.8534 J0.3745
G02 X55.9049 Y65.3071 I0.9648 J0.1995
G01 X55.9049 Y65.3071
G02 X55.9254 Y65.5103 I1.0175 J0.0000
G02 X55.9845 Y65.6979 I0.9252 J-0.1885
G02 X56.0794 Y65.8709 I0.9871 J-0.4287
G02 X56.1994 Y66.0165 I0.8156 J-0.5501
G02 X56.3448 Y66.1367 I0.7057 J-0.7057
G02 X56.5161 Y66.2313 I0.6025 J-0.8881
G02 X56.7019 Y66.2904 I0.3711 J-0.8457
G02 X56.9050 Y66.3109 I0.2031 J-0.9920
G01 X56.9050 Y66.3109
G02 X57.1044 Y66.2905 I0.0000 J-0.9852
G02 X57.2902 Y66.2313 I-0.1887 J-0.9126
G02 X57.4617 Y66.1369 I-0.4379 J-0.9979
G02 X57.6088 Y66.0165 I-0.5746 J-0.8520
G02 X57.7300 Y65.8705 I-0.6712 J-0.6804
G02 X57.8236 Y65.6979 I-0.8486 J-0.5723
G02 X57.8814 Y65.5105 I-0.8834 J-0.3748
G02 X57.9014 Y65.3071 I-1.0216 J-0.2034
G01 X57.9014 Y65.3071
G01 X55.9123 Y65.3071
G01 X57.9014 Y65.3071
G03 X57.8814 Y65.5105 I-1.0417 J0.0000
G03 X57.8236 Y65.6979 I-0.9411 J-0.1873
G03 X57.7300 Y65.8705 I-0.9423 J-0.3998
G03 X57.6088 Y66.0165 I-0.7923 J-0.5344
G03 X57.4617 Y66.1369 I-0.7217 J-0.7316
G03 X57.2902 Y66.2313 I-0.6093 J-0.9035
G03 X57.1044 Y66.2905 I-0.3745 J-0.8534
G03 X56.9050 Y66.3109 I-0.1995 J-0.9648
G01 X56.9050 Y66.3109
G03 X56.7019 Y66.2904 I0.0000 J-1.0125
G03 X56.5161 Y66.2313 I0.1853 J-0.9048
G03 X56.3448 Y66.1367 I0.4312 J-0.9828
G03 X56.1994 Y66.0165 I0.5603 J-0.8260
G03 X56.0794 Y65.8709 I0.6956 J-0.6956
G03 X55.9845 Y65.6979 I0.8922 J-0.6017
G03 X55.9254 Y65.5103 I0.8660 J-0.3762
G03 X55.9049 Y65.3071 I0.9970 J-0.2032
G01 X55.9049 Y65.3071
G03 X55.9253 Y65.1077 I0.9852 J0.0000
G03 X55.9845 Y64.9219 I0.9126 J0.1887
G03 X56.0791 Y64.7506 I0.9828 J0.4312
G03 X56.1994 Y64.6052 I0.8260 J0.5603
G03 X56.3449 Y64.4853 I0.6907 J0.6907
G03 X56.5161 Y64.3922 I0.5818 J0.8651
G03 X56.7017 Y64.3345 I0.3697 J0.8626
G03 X56.9050 Y64.3144 I0.2033 J1.0165
G01 X56.9050 Y64.3144
G03 X57.1731 Y64.3496 I0.0000 J1.0380
G03 X57.4106 Y64.4496 I-0.2434 J0.9102
G03 X57.6142 Y64.6086 I-0.5187 J0.8739
G03 X57.7681 Y64.8107 I-0.6981 J0.6909
G0Z0 ; pen up
G00 X59.0164 Y66.2702
G0Z6 ; pen down on paper
G01 X59.4127 Y66.2702
G01 X59.4127 Y65.8220
G02 X59.4212 Y65.8754 I0.1731 J0.0000
G02 X59.4572 Y65.9590 I0.4671 J-0.1515
G02 X59.5085 Y66.0351 I0.4282 J-0.2336
G02 X59.5850 Y66.1146 I0.5455 J-0.4481
G02 X59.6737 Y66.1801 I0.4054 J-0.4561
G02 X59.7924 Y66.2406 I0.4619 J-0.7607
G02 X59.9193 Y66.2784 I0.2407 J-0.5760
G02 X60.0721 Y66.2924 I0.1528 J-0.8238
G01 X60.0721 Y66.2924
G02 X60.2293 Y66.2804 I0.0000 J-1.0343
G02 X60.3610 Y66.2480 I-0.1162 J-0.7553
G02 X60.4844 Y66.1927 I-0.2417 J-0.7051
G02 X60.5851 Y66.1220 I-0.3020 J-0.5374
G02 X60.6680 Y66.0321 I-0.3496 J-0.4053
G02 X60.7295 Y65.9238 I-0.4481 J-0.3266
G02 X60.7661 Y65.8044 I-0.5333 J-0.2286
G02 X60.7796 Y65.6627 I-0.7400 J-0.1417
G01 X60.7796 Y65.6627
G02 X60.7954 Y65.7808 I0.4477 J0.0000
G02 X60.8444 Y65.8998 I0.5038 J-0.1378
G02 X60.9184 Y66.0069 I0.6251 J-0.3529
G02 X61.0129 Y66.1016 I0.5813 J-0.4853
G02 X61.1224 Y66.1789 I0.5128 J-0.6109
G02 X61.2500 Y66.2406 I0.4506 J-0.7690
G02 X61.3858 Y66.2794 I0.2787 J-0.7168
G02 X61.5241 Y66.2924 I0.1383 J-0.7311
G01 X61.5241 Y66.2924
G02 X61.6632 Y66.2820 I0.0000 J-0.9377
G02 X61.7834 Y66.2535 I-0.1091 J-0.7273
G02 X61.8952 Y66.2033 I-0.1824 J-0.5560
G02 X61.9871 Y66.1350 I-0.2568 J-0.4413
G02 X62.0614 Y66.0478 I-0.3455 J-0.3696
G02 X62.1205 Y65.9368 I-0.5064 J-0.3407
G02 X62.1553 Y65.8157 I-0.5519 J-0.2242
G02 X62.1686 Y65.6627 I-0.8708 J-0.1530
G01 X62.1686 Y65.6627
G01 X62.1686 Y64.3255
G01 X62.5650 Y64.3255
G01 X61.7760 Y64.3255
G01 X62.1686 Y64.3255
G01 X62.1686 Y65.6627
G03 X62.1553 Y65.8157 I-0.8841 J0.0000
G03 X62.1205 Y65.9368 I-0.5867 J-0.1031
G03 X62.0614 Y66.0478 I-0.5654 J-0.2297
G03 X61.9871 Y66.1350 I-0.4198 J-0.2825
G03 X61.8952 Y66.2033 I-0.3486 J-0.3730
G03 X61.7834 Y66.2535 I-0.2943 J-0.5058
G03 X61.6632 Y66.2820 I-0.2293 J-0.6988
G03 X61.5241 Y66.2924 I-0.1391 J-0.9273
G01 X61.5241 Y66.2924
G03 X61.3858 Y66.2794 I0.0000 J-0.7441
G03 X61.2500 Y66.2406 I0.1430 J-0.7557
G03 X61.1224 Y66.1789 I0.3230 J-0.8306
G03 X61.0129 Y66.1016 I0.4032 J-0.6882
G03 X60.9184 Y66.0069 I0.4868 J-0.5800
G03 X60.8444 Y65.8998 I0.5510 J-0.4600
G03 X60.7954 Y65.7808 I0.4548 J-0.2567
G03 X60.7796 Y65.6627 I0.4318 J-0.1181
G01 X60.7796 Y65.6627
G01 X60.7796 Y64.3255
G01 X61.1759 Y64.3255
G01 X60.3832 Y64.3255
G01 X60.7796 Y64.3255
G01 X60.7796 Y65.6627
G03 X60.7661 Y65.8044 I-0.7534 J0.0000
G03 X60.7295 Y65.9238 I-0.5699 J-0.1091
G03 X60.6680 Y66.0321 I-0.5096 J-0.2184
G03 X60.5851 Y66.1220 I-0.4325 J-0.3153
G03 X60.4844 Y66.1927 I-0.4027 J-0.4668
G03 X60.3610 Y66.2480 I-0.3652 J-0.6498
G03 X60.2293 Y66.2804 I-0.2479 J-0.7229
G03 X60.0721 Y66.2924 I-0.1573 J-1.0223
G01 X60.0721 Y66.2924
G03 X59.9193 Y66.2784 I0.0000 J-0.8378
G03 X59.7924 Y66.2406 I0.1138 J-0.6139
G03 X59.6737 Y66.1801 I0.3432 J-0.8212
G03 X59.5850 Y66.1146 I0.3167 J-0.5216
G03 X59.5085 Y66.0351 I0.4690 J-0.5276
G03 X59.4572 Y65.9590 I0.3769 J-0.3096
G03 X59.4212 Y65.8754 I0.4311 J-0.2351
G03 X59.4127 Y65.8220 I0.1647 J-0.0534
G01 X59.4127 Y65.8220
G01 X59.4127 Y64.3255
G01 X59.8091 Y64.3255
G01 X59.0164 Y64.3255
G01 X59.4127 Y64.3255
G01 X59.4127 Y66.2702
G01 X59.0164 Y66.2702
G0Z0 ; pen up
G00 X64.5615 Y64.2959
G0Z6 ; pen down on paper
G01 X64.5615 Y64.2959
G02 X64.3619 Y64.3159 I0.0000 J1.0037
G02 X64.1781 Y64.3737 I0.1841 J0.9075
G02 X64.0087 Y64.4666 I0.4130 J0.9538
G02 X63.8633 Y64.5866 I0.5553 J0.8208
G02 X63.7437 Y64.7324 I0.6810 J0.6810
G02 X63.6503 Y64.9052 I0.8694 J0.5813
G02 X63.5925 Y65.0926 I0.8834 J0.3748
G02 X63.5725 Y65.2960 I1.0216 J0.2034
G01 X63.5725 Y65.2960
G02 X63.5925 Y65.4993 I1.0417 J0.0000
G02 X63.6503 Y65.6868 I0.9411 J-0.1873
G02 X63.7435 Y65.8598 I0.9771 J-0.4145
G02 X63.8633 Y66.0072 I0.8253 J-0.5486
G02 X64.0089 Y66.1292 I0.7150 J-0.7054
G02 X64.1781 Y66.2239 I0.5935 J-0.8624
G02 X64.3621 Y66.2830 I0.3694 J-0.8332
G02 X64.5615 Y66.3035 I0.1994 J-0.9599
G01 X64.5615 Y66.3035
G02 X64.7609 Y66.2830 I0.0000 J-0.9803
G02 X64.9449 Y66.2239 I-0.1854 J-0.8924
G02 X65.1139 Y66.1290 I-0.4179 J-0.9426
G02 X65.2579 Y66.0072 I-0.5555 J-0.8023
G02 X65.3761 Y65.8601 I-0.7166 J-0.6972
G02 X65.4690 Y65.6868 I-0.9063 J-0.5972
G02 X65.5268 Y65.4993 I-0.8834 J-0.3748
G02 X65.5468 Y65.2960 I-1.0216 J-0.2034
G01 X65.5468 Y65.2960
G02 X65.5268 Y65.0926 I-1.0417 J0.0000
G02 X65.4690 Y64.9052 I-0.9411 J0.1873
G02 X65.3760 Y64.7321 I-0.9843 J0.4176
G02 X65.2579 Y64.5866 I-0.8095 J0.5365
G02 X65.1141 Y64.4667 I-0.6855 J0.6761
G02 X64.9449 Y64.3737 I-0.5760 J0.8464
G02 X64.7611 Y64.3159 I-0.3679 J0.8498
G02 X64.5615 Y64.2959 I-0.1996 J0.9836
G0Z0 ; pen up
G00 X64.5615 Y64.2959
G0Z6 ; pen down on paper
G01 X64.5615 Y64.2959
G02 X64.3619 Y64.3159 I0.0000 J1.0037
G02 X64.1781 Y64.3737 I0.1841 J0.9075
G02 X64.0087 Y64.4666 I0.4130 J0.9538
G02 X63.8633 Y64.5866 I0.5553 J0.8208
G02 X63.7437 Y64.7324 I0.6810 J0.6810
G02 X63.6503 Y64.9052 I0.8694 J0.5813
G02 X63.5925 Y65.0926 I0.8834 J0.3748
G02 X63.5725 Y65.2960 I1.0216 J0.2034
G01 X63.5725 Y65.2960
G02 X63.5925 Y65.4993 I1.0417 J0.0000
G02 X63.6503 Y65.6868 I0.9411 J-0.1873
G02 X63.7435 Y65.8598 I0.9771 J-0.4145
G02 X63.8633 Y66.0072 I0.8253 J-0.5486
G02 X64.0089 Y66.1292 I0.7150 J-0.7054
G02 X64.1781 Y66.2239 I0.5935 J-0.8624
G02 X64.3621 Y66.2830 I0.3694 J-0.8332
G02 X64.5615 Y66.3035 I0.1994 J-0.9599
G01 X64.5615 Y66.3035
G02 X64.7609 Y66.2830 I0.0000 J-0.9803
G02 X64.9449 Y66.2239 I-0.1854 J-0.8924
G02 X65.1139 Y66.1290 I-0.4179 J-0.9426
G02 X65.2579 Y66.0072 I-0.5555 J-0.8023
G02 X65.3761 Y65.8601 I-0.7166 J-0.6972
G02 X65.4690 Y65.6868 I-0.9063 J-0.5972
G02 X65.5268 Y65.4993 I-0.8834 J-0.3748
G02 X65.5468 Y65.2960 I-1.0216 J-0.2034
G01 X65.5468 Y65.2960
G02 X65.5268 Y65.0926 I-1.0417 J0.0000
G02 X65.4690 Y64.9052 I-0.9411 J0.1873
G02 X65.3760 Y64.7321 I-0.9843 J0.4176
G02 X65.2579 Y64.5866 I-0.8095 J0.5365
G02 X65.1141 Y64.4667 I-0.6855 J0.6761
G02 X64.9449 Y64.3737 I-0.5760 J0.8464
G02 X64.7611 Y64.3159 I-0.3679 J0.8498
G02 X64.5615 Y64.2959 I-0.1996 J0.9836
G0Z0 ; pen up
G00 X69.9103 Y64.8293
G0Z6 ; pen down on paper
G01 X69.9103 Y64.3255
G01 X68.3064 Y64.3255
G01 X69.5510 Y65.5738
G03 X69.6418 Y65.6681 I-2.3943 J2.3943
G03 X69.7122 Y65.7479 I-1.6423 J1.5200
G03 X69.7763 Y65.8323 I-0.8258 J0.6944
G03 X69.8251 Y65.9127 I-0.6999 J0.4797
G03 X69.8637 Y65.9983 I-0.6204 J0.3309
G03 X69.8900 Y66.0868 I-0.6389 J0.2379
G03 X69.9048 Y66.1782 I-0.7515 J0.1687
G03 X69.9103 Y66.2887 I-1.0950 J0.1105
G01 X69.9103 Y66.2887
G03 X69.9031 Y66.3990 I-0.8438 J0.0000
G03 X69.8788 Y66.5276 I-1.1750 J-0.1548
G03 X69.8350 Y66.6496 I-0.6105 J-0.1504
G03 X69.7640 Y66.7665 I-0.6319 J-0.3037
G03 X69.6694 Y66.8642 I-0.4318 J-0.3238
G03 X69.5325 Y66.9518 I-0.4818 J-0.6023
G03 X69.3792 Y67.0040 I-0.2691 J-0.5382
G03 X69.1547 Y67.0258 I-0.2245 J-1.1450
G01 X69.1547 Y67.0258
G03 X68.9271 Y67.0023 I0.0000 J-1.1097
G03 X68.7657 Y66.9443 I0.1278 J-0.6100
G03 X68.6204 Y66.8502 I0.4370 J-0.8343
G03 X68.5139 Y66.7462 I0.4309 J-0.5476
G03 X68.4293 Y66.6231 I0.6560 J-0.5414
G03 X68.3768 Y66.5036 I0.5655 J-0.3195
G03 X68.3443 Y66.3763 I0.9965 J-0.3224
G03 X68.3361 Y66.2887 I0.4619 J-0.0876
G01 X68.3361 Y66.2887
G02 X68.3443 Y66.3763 I0.4701 J0.0000
G02 X68.3768 Y66.5036 I1.0290 J-0.1952
G02 X68.4293 Y66.6231 I0.6180 J-0.1999
G02 X68.5139 Y66.7462 I0.7406 J-0.4183
G02 X68.6204 Y66.8502 I0.5374 J-0.4436
G02 X68.7657 Y66.9443 I0.5824 J-0.7402
G02 X68.9271 Y67.0023 I0.2892 J-0.5521
G02 X69.1547 Y67.0258 I0.2276 J-1.0861
G01 X69.1547 Y67.0258
G02 X69.3792 Y67.0040 I0.0000 J-1.1668
G02 X69.5325 Y66.9518 I-0.1158 J-0.5905
G02 X69.6694 Y66.8642 I-0.3449 J-0.6899
G02 X69.7640 Y66.7665 I-0.3372 J-0.4215
G02 X69.8350 Y66.6496 I-0.5609 J-0.4207
G02 X69.8788 Y66.5276 I-0.5667 J-0.2724
G02 X69.9031 Y66.3990 I-1.1507 J-0.2835
G02 X69.9103 Y66.2887 I-0.8366 J-0.1102
G01 X69.9103 Y66.2887
G02 X69.9048 Y66.1782 I-1.1006 J0.0000
G02 X69.8900 Y66.0868 I-0.7663 J0.0773
G02 X69.8637 Y65.9983 I-0.6652 J0.1493
G02 X69.8251 Y65.9127 I-0.6590 J0.2454
G02 X69.7763 Y65.8323 I-0.7487 J0.3993
G02 X69.7122 Y65.7479 I-0.8900 J0.6100
G02 X69.6418 Y65.6681 I-1.7127 J1.4402
G02 X69.5510 Y65.5738 I-2.4850 J2.3000
G01 X69.5510 Y65.5738
G01 X68.3064 Y64.3255
G01 X69.9103 Y64.3255
G01 X69.9103 Y64.8293
G0Z0 ; pen up
G00 X71.7587 Y67.0221
G0Z6 ; pen down on paper
G01 X71.7587 Y67.0221
G01 X71.7883 Y67.0221
G02 X71.9662 Y67.0044 I0.0000 J-0.9022
G02 X72.1291 Y66.9536 I-0.1622 J-0.8064
G02 X72.2793 Y66.8717 I-0.3634 J-0.8447
G02 X72.4069 Y66.7665 I-0.4797 J-0.7125
G02 X72.5121 Y66.6389 I-0.6074 J-0.6074
G02 X72.5940 Y66.4887 I-0.7628 J-0.5136
G02 X72.6448 Y66.3258 I-0.7556 J-0.3251
G02 X72.6625 Y66.1480 I-0.8845 J-0.1779
G01 X72.6625 Y66.1480
G01 X72.6625 Y65.1775
G02 X72.6447 Y64.9997 I-0.8972 J0.0000
G02 X72.5940 Y64.8385 I-0.7860 J0.1589
G02 X72.5123 Y64.6901 I-0.8404 J0.3658
G02 X72.4069 Y64.5626 I-0.7229 J0.4900
G02 X72.2793 Y64.4574 I-0.6074 J0.6074
G02 X72.1291 Y64.3755 I-0.5136 J0.7628
G02 X71.9662 Y64.3247 I-0.3251 J0.7556
G02 X71.7883 Y64.3070 I-0.1779 J0.8845
G01 X71.7883 Y64.3070
G01 X71.7587 Y64.3070
G02 X71.5808 Y64.3247 I0.0000 J0.9022
G02 X71.4179 Y64.3755 I0.1622 J0.8064
G02 X71.2677 Y64.4574 I0.3634 J0.8447
G02 X71.1401 Y64.5626 I0.4797 J0.7125
G02 X71.0348 Y64.6901 I0.6175 J0.6175
G02 X70.9530 Y64.8385 I0.7586 J0.5143
G02 X70.9023 Y64.9997 I0.7352 J0.3200
G02 X70.8845 Y65.1775 I0.8794 J0.1778
G01 X70.8845 Y65.1775
G01 X70.8845 Y66.1480
G02 X70.9022 Y66.3258 I0.9022 J0.0000
G02 X70.9530 Y66.4887 I0.8064 J-0.1622
G02 X71.0350 Y66.6389 I0.8447 J-0.3634
G02 X71.1401 Y66.7665 I0.7125 J-0.4797
G02 X71.2677 Y66.8717 I0.6074 J-0.6074
G02 X71.4179 Y66.9536 I0.5136 J-0.7628
G02 X71.5808 Y67.0044 I0.3251 J-0.7556
G02 X71.7587 Y67.0221 I0.1779 J-0.8845
G0Z0 ; pen up
G00 X71.7587 Y67.0221
G0Z6 ; pen down on paper
G01 X71.7587 Y67.0221
G01 X71.7883 Y67.0221
G02 X71.9662 Y67.0044 I0.0000 J-0.9022
G02 X72.1291 Y66.9536 I-0.1622 J-0.8064
G02 X72.2793 Y66.8717 I-0.3634 J-0.8447
G02 X72.4069 Y66.7665 I-0.4797 J-0.7125
G02 X72.5121 Y66.6389 I-0.6074 J-0.6074
G02 X72.5940 Y66.4887 I-0.7628 J-0.5136
G02 X72.6448 Y66.3258 I-0.7556 J-0.3251
G02 X72.6625 Y66.1480 I-0.8845 J-0.1779
G01 X72.6625 Y66.1480
G01 X72.6625 Y65.1775
G02 X72.6447 Y64.9997 I-0.8972 J0.0000
G02 X72.5940 Y64.8385 I-0.7860 J0.1589
G02 X72.5123 Y64.6901 I-0.8404 J0.3658
G02 X72.4069 Y64.5626 I-0.7229 J0.4900
G02 X72.2793 Y64.4574 I-0.6074 J0.6074
G02 X72.1291 Y64.3755 I-0.5136 J0.7628
G02 X71.9662 Y64.3247 I-0.3251 J0.7556
G02 X71.7883 Y64.3070 I-0.1779 J0.8845
G01 X71.7883 Y64.3070
G01 X71.7587 Y64.3070
G02 X71.5808 Y64.3247 I0.0000 J0.9022
G02 X71.4179 Y64.3755 I0.1622 J0.8064
G02 X71.2677 Y64.4574 I0.3634 J0.8447
G02 X71.1401 Y64.5626 I0.4797 J0.7125
G02 X71.0348 Y64.6901 I0.6175 J0.6175
G02 X70.9530 Y64.8385 I0.7586 J0.5143
G02 X70.9023 Y64.9997 I0.7352 J0.3200
G02 X70.8845 Y65.1775 I0.8794 J0.1778
G01 X70.8845 Y65.1775
G01 X70.8845 Y66.1480
G02 X70.9022 Y66.3258 I0.9022 J0.0000
G02 X70.9530 Y66.4887 I0.8064 J-0.1622
G02 X71.0350 Y66.6389 I0.8447 J-0.3634
G02 X71.1401 Y66.7665 I0.7125 J-0.4797
G02 X71.2677 Y66.8717 I0.6074 J-0.6074
G02 X71.4179 Y66.9536 I0.5136 J-0.7628
G02 X71.5808 Y67.0044 I0.3251 J-0.7556
G02 X71.7587 Y67.0221 I0.1779 J-0.8845
G0Z0 ; pen up
G00 X75.1665 Y64.8293
G0Z6 ; pen down on paper
G01 X75.1665 Y64.3255
G01 X73.5626 Y64.3255
G01 X74.8072 Y65.5738
G03 X74.8980 Y65.6681 I-2.3943 J2.3943
G03 X74.9684 Y65.7479 I-1.6423 J1.5200
G03 X75.0325 Y65.8323 I-0.8258 J0.6944
G03 X75.0813 Y65.9127 I-0.6999 J0.4797
G03 X75.1199 Y65.9983 I-0.6204 J0.3309
G03 X75.1462 Y66.0868 I-0.6389 J0.2379
G03 X75.1610 Y66.1782 I-0.7515 J0.1687
G03 X75.1665 Y66.2887 I-1.0950 J0.1105
G01 X75.1665 Y66.2887
G03 X75.1593 Y66.3990 I-0.8438 J0.0000
G03 X75.1351 Y66.5276 I-1.1750 J-0.1548
G03 X75.0913 Y66.6496 I-0.6105 J-0.1504
G03 X75.0202 Y66.7665 I-0.6319 J-0.3037
G03 X74.9256 Y66.8642 I-0.4318 J-0.3238
G03 X74.7887 Y66.9518 I-0.4818 J-0.6023
G03 X74.6354 Y67.0040 I-0.2691 J-0.5382
G03 X74.4109 Y67.0258 I-0.2245 J-1.1450
G01 X74.4109 Y67.0258
G03 X74.1833 Y67.0023 I0.0000 J-1.1097
G03 X74.0220 Y66.9443 I0.1278 J-0.6100
G03 X73.8766 Y66.8502 I0.4370 J-0.8343
G03 X73.7701 Y66.7462 I0.4309 J-0.5476
G03 X73.6855 Y66.6231 I0.6560 J-0.5414
G03 X73.6330 Y66.5036 I0.5655 J-0.3195
G03 X73.6005 Y66.3763 I0.9965 J-0.3224
G03 X73.5923 Y66.2887 I0.4619 J-0.0876
G01 X73.5923 Y66.2887
G02 X73.6005 Y66.3763 I0.4701 J0.0000
G02 X73.6330 Y66.5036 I1.0290 J-0.1952
G02 X73.6855 Y66.6231 I0.6180 J-0.1999
G02 X73.7701 Y66.7462 I0.7406 J-0.4183
G02 X73.8766 Y66.8502 I0.5374 J-0.4436
G02 X74.0220 Y66.9443 I0.5824 J-0.7402
G02 X74.1833 Y67.0023 I0.2892 J-0.5521
G02 X74.4109 Y67.0258 I0.2276 J-1.0861
G01 X74.4109 Y67.0258
G02 X74.6354 Y67.0040 I0.0000 J-1.1668
G02 X74.7887 Y66.9518 I-0.1158 J-0.5905
G02 X74.9256 Y66.8642 I-0.3449 J-0.6899
G02 X75.0202 Y66.7665 I-0.3372 J-0.4215
G02 X75.0913 Y66.6496 I-0.5609 J-0.4207
G02 X75.1351 Y66.5276 I-0.5667 J-0.2724
G02 X75.1593 Y66.3990 I-1.1507 J-0.2835
G02 X75.1665 Y66.2887 I-0.8366 J-0.1102
G01 X75.1665 Y66.2887
G02 X75.1610 Y66.1782 I-1.1006 J0.0000
G02 X75.1462 Y66.0868 I-0.7663 J0.0773
G02 X75.1199 Y65.9983 I-0.6652 J0.1493
G02 X75.0813 Y65.9127 I-0.6590 J0.2454
G02 X75.0325 Y65.8323 I-0.7487 J0.3993
G02 X74.9684 Y65.7479 I-0.8900 J0.6100
G02 X74.8980 Y65.6681 I-1.7127 J1.4402
G02 X74.8072 Y65.5738 I-2.4850 J2.3000
G01 X74.8072 Y65.5738
G01 X73.5626 Y64.3255
G01 X75.1665 Y64.3255
G01 X75.1665 Y64.8293
G0Z0 ; pen up
G00 X76.3148 Y65.7886
G0Z6 ; pen down on paper
G01 X76.3148 Y65.7886
G02 X76.4471 Y65.9044 I0.6667 J-0.6286
G02 X76.6038 Y65.9961 I0.5698 J-0.7936
G02 X76.7749 Y66.0537 I0.3426 J-0.7340
G02 X76.9631 Y66.0739 I0.1882 J-0.8691
G01 X76.9631 Y66.0739
G02 X77.1408 Y66.0559 I0.0000 J-0.8882
G02 X77.3075 Y66.0035 I-0.1700 J-0.8321
G02 X77.4610 Y65.9192 I-0.3671 J-0.8501
G02 X77.5909 Y65.8109 I-0.4858 J-0.7147
G02 X77.6979 Y65.6796 I-0.6418 J-0.6321
G02 X77.7817 Y65.5256 I-0.8022 J-0.5365
G02 X77.8341 Y65.3590 I-0.7797 J-0.3367
G02 X77.8521 Y65.1812 I-0.8702 J-0.1778
G01 X77.8521 Y65.1812
G02 X77.8338 Y64.9998 I-0.9109 J0.0000
G02 X77.7817 Y64.8348 I-0.8037 J0.1633
G02 X77.6977 Y64.6830 I-0.8521 J0.3722
G02 X77.5909 Y64.5552 I-0.7087 J0.4834
G02 X77.4616 Y64.4499 I-0.6178 J0.6275
G02 X77.3075 Y64.3662 I-0.5398 J0.8097
G02 X77.1408 Y64.3138 I-0.3367 J0.7797
G02 X76.9631 Y64.2959 I-0.1778 J0.8702
G01 X76.9631 Y64.2959
G02 X76.7816 Y64.3140 I0.0000 J0.9159
G02 X76.6149 Y64.3662 I0.1666 J0.8241
G02 X76.4609 Y64.4499 I0.3858 J0.8934
G02 X76.3315 Y64.5552 I0.4884 J0.7327
G02 X76.2247 Y64.6830 I0.6019 J0.6113
G02 X76.1407 Y64.8348 I0.7682 J0.5240
G02 X76.0886 Y64.9998 I0.7515 J0.3283
G02 X76.0704 Y65.1812 I0.8927 J0.1814
G01 X76.0704 Y65.1812
G02 X76.0839 Y65.3305 I0.8293 J0.0000
G02 X76.1222 Y65.4645 I0.7058 J-0.1292
G02 X76.1802 Y65.5929 I1.3514 J-0.5330
G02 X76.2482 Y65.7109 I1.2087 J-0.6180
G01 X76.2482 Y65.7109
G01 X77.1372 Y67.0110
G01 X76.2482 Y65.7109
G03 X76.1802 Y65.5929 I1.1407 J-0.7359
G03 X76.1222 Y65.4645 I1.2935 J-0.6613
G03 X76.0839 Y65.3305 I0.6675 J-0.2632
G03 X76.0704 Y65.1812 I0.8158 J-0.1493
G01 X76.0704 Y65.1812
G03 X76.0886 Y64.9998 I0.9109 J0.0000
G03 X76.1407 Y64.8348 I0.8037 J0.1633
G03 X76.2247 Y64.6830 I0.8521 J0.3722
G03 X76.3315 Y64.5552 I0.7087 J0.4834
G03 X76.4609 Y64.4499 I0.6178 J0.6275
G03 X76.6149 Y64.3662 I0.5398 J0.8097
G03 X76.7816 Y64.3140 I0.3333 J0.7719
G03 X76.9631 Y64.2959 I0.1815 J0.8977
G01 X76.9631 Y64.2959
G03 X77.1408 Y64.3138 I0.0000 J0.8882
G03 X77.3075 Y64.3662 I-0.1700 J0.8321
G03 X77.4616 Y64.4499 I-0.3858 J0.8934
G03 X77.5909 Y64.5552 I-0.4884 J0.7327
G03 X77.6977 Y64.6830 I-0.6019 J0.6113
G03 X77.7817 Y64.8348 I-0.7682 J0.5240
G03 X77.8338 Y64.9998 I-0.7515 J0.3283
G03 X77.8521 Y65.1812 I-0.8927 J0.1814
G01 X77.8521 Y65.1812
G03 X77.8341 Y65.3590 I-0.8882 J0.0000
G03 X77.7817 Y65.5256 I-0.8321 J-0.1700
G03 X77.6979 Y65.6796 I-0.8860 J-0.3826
G03 X77.5909 Y65.8109 I-0.7487 J-0.5008
G03 X77.4610 Y65.9192 I-0.6158 J-0.6064
G03 X77.3075 Y66.0035 I-0.5205 J-0.7658
G03 X77.1408 Y66.0559 I-0.3367 J-0.7797
G03 X76.9631 Y66.0739 I-0.1778 J-0.8702
G01 X76.9631 Y66.0739
G03 X76.7749 Y66.0537 I0.0000 J-0.8892
G03 X76.6038 Y65.9961 I0.1714 J-0.7917
G03 X76.4471 Y65.9044 I0.4132 J-0.8853
G03 X76.3148 Y65.7886 I0.5344 J-0.7443
G0Z0 ; pen up
G00 X79.1596 Y64.3255
G0Z6 ; pen down on paper
G01 X79.1596 Y64.5033
G01 X79.1596 Y64.3255
G0Z0 ; pen up
G00 X79.1596 Y65.3071
G0Z6 ; pen down on paper
G01 X79.1596 Y65.4923
G01 X79.1596 Y65.3071
G0Z0 ; pen up
G00 X80.7895 Y64.3255
G0Z6 ; pen down on paper
G01 X80.7895 Y64.5033
G01 X80.7895 Y64.3255
G0Z0 ; pen up
G00 X80.7895 Y65.3071
G0Z6 ; pen down on paper
G01 X80.7895 Y65.4923
G01 X80.7895 Y65.3071
G0Z0 ; pen up
G00 X82.9712 Y67.0221
G0Z6 ; pen down on paper
G01 X82.9712 Y67.0221
G01 X83.0009 Y67.0221
G02 X83.1787 Y67.0044 I0.0000 J-0.9022
G02 X83.3416 Y66.9536 I-0.1622 J-0.8064
G02 X83.4918 Y66.8717 I-0.3634 J-0.8447
G02 X83.6194 Y66.7665 I-0.4797 J-0.7125
G02 X83.7246 Y66.6389 I-0.6074 J-0.6074
G02 X83.8065 Y66.4887 I-0.7628 J-0.5136
G02 X83.8573 Y66.3258 I-0.7556 J-0.3251
G02 X83.8750 Y66.1480 I-0.8845 J-0.1779
G01 X83.8750 Y66.1480
G01 X83.8750 Y65.1775
G02 X83.8572 Y64.9997 I-0.8972 J0.0000
G02 X83.8065 Y64.8385 I-0.7860 J0.1589
G02 X83.7248 Y64.6901 I-0.8404 J0.3658
G02 X83.6194 Y64.5626 I-0.7229 J0.4900
G02 X83.4918 Y64.4574 I-0.6074 J0.6074
G02 X83.3416 Y64.3755 I-0.5136 J0.7628
G02 X83.1787 Y64.3247 I-0.3251 J0.7556
G02 X83.0009 Y64.3070 I-0.1779 J0.8845
G01 X83.0009 Y64.3070
G01 X82.9712 Y64.3070
G02 X82.7934 Y64.3247 I0.0000 J0.9022
G02 X82.6304 Y64.3755 I0.1622 J0.8064
G02 X82.4802 Y64.4574 I0.3634 J0.8447
G02 X82.3526 Y64.5626 I0.4797 J0.7125
G02 X82.2473 Y64.6901 I0.6175 J0.6175
G02 X82.1656 Y64.8385 I0.7586 J0.5143
G02 X82.1148 Y64.9997 I0.7352 J0.3200
G02 X82.0970 Y65.1775 I0.8794 J0.1778
G01 X82.0970 Y65.1775
G01 X82.0970 Y66.1480
G02 X82.1147 Y66.3258 I0.9022 J0.0000
G02 X82.1656 Y66.4887 I0.8064 J-0.1622
G02 X82.2475 Y66.6389 I0.8447 J-0.3634
G02 X82.3526 Y66.7665 I0.7125 J-0.4797
G02 X82.4802 Y66.8717 I0.6074 J-0.6074
G02 X82.6304 Y66.9536 I0.5136 J-0.7628
G02 X82.7934 Y67.0044 I0.3251 J-0.7556
G02 X82.9712 Y67.0221 I0.1779 J-0.8845
G0Z0 ; pen up
G00 X82.9712 Y67.0221
G0Z6 ; pen down on paper
G01 X82.9712 Y67.0221
G01 X83.0009 Y67.0221
G02 X83.1787 Y67.0044 I0.0000 J-0.9022
G02 X83.3416 Y66.9536 I-0.1622 J-0.8064
G02 X83.4918 Y66.8717 I-0.3634 J-0.8447
G02 X83.6194 Y66.7665 I-0.4797 J-0.7125
G02 X83.7246 Y66.6389 I-0.6074 J-0.6074
G02 X83.8065 Y66.4887 I-0.7628 J-0.5136
G02 X83.8573 Y66.3258 I-0.7556 J-0.3251
G02 X83.8750 Y66.1480 I-0.8845 J-0.1779
G01 X83.8750 Y66.1480
G01 X83.8750 Y65.1775
G02 X83.8572 Y64.9997 I-0.8972 J0.0000
G02 X83.8065 Y64.8385 I-0.7860 J0.1589
G02 X83.7248 Y64.6901 I-0.8404 J0.3658
G02 X83.6194 Y64.5626 I-0.7229 J0.4900
G02 X83.4918 Y64.4574 I-0.6074 J0.6074
G02 X83.3416 Y64.3755 I-0.5136 J0.7628
G02 X83.1787 Y64.3247 I-0.3251 J0.7556
G02 X83.0009 Y64.3070 I-0.1779 J0.8845
G01 X83.0009 Y64.3070
G01 X82.9712 Y64.3070
G02 X82.7934 Y64.3247 I0.0000 J0.9022
G02 X82.6304 Y64.3755 I0.1622 J0.8064
G02 X82.4802 Y64.4574 I0.3634 J0.8447
G02 X82.3526 Y64.5626 I0.4797 J0.7125
G02 X82.2473 Y64.6901 I0.6175 J0.6175
G02 X82.1656 Y64.8385 I0.7586 J0.5143
G02 X82.1148 Y64.9997 I0.7352 J0.3200
G02 X82.0970 Y65.1775 I0.8794 J0.1778
G01 X82.0970 Y65.1775
G01 X82.0970 Y66.1480
G02 X82.1147 Y66.3258 I0.9022 J0.0000
G02 X82.1656 Y66.4887 I0.8064 J-0.1622
G02 X82.2475 Y66.6389 I0.8447 J-0.3634
G02 X82.3526 Y66.7665 I0.7125 J-0.4797
G02 X82.4802 Y66.8717 I0.6074 J-0.6074
G02 X82.6304 Y66.9536 I0.5136 J-0.7628
G02 X82.7934 Y67.0044 I0.3251 J-0.7556
G02 X82.9712 Y67.0221 I0.1779 J-0.8845
G0Z0 ; pen up
G00 X85.2271 Y64.3255
G0Z6 ; pen down on paper
G01 X86.0160 Y64.3255
G01 X85.6197 Y64.3255
G01 X85.6197 Y66.9999
G01 X84.9863 Y66.9999
G01 X85.6197 Y66.9999
G01 X85.6197 Y64.3255
G01 X85.2271 Y64.3255
G0Z0 ; pen up
G00 X87.4940 Y64.3255
G0Z6 ; pen down on paper
G01 X87.4940 Y64.5033
G01 X87.4940 Y64.3255
G0Z0 ; pen up
G00 X87.4940 Y65.3071
G0Z6 ; pen down on paper
G01 X87.4940 Y65.4923
G01 X87.4940 Y65.3071
G0Z0 ; pen up
G00 X89.1238 Y64.3255
G0Z6 ; pen down on paper
G01 X89.1238 Y64.5033
G01 X89.1238 Y64.3255
G0Z0 ; pen up
G00 X89.1238 Y65.3071
G0Z6 ; pen down on paper
G01 X89.1238 Y65.4923
G01 X89.1238 Y65.3071
G0Z0 ; pen up
G00 X90.7944 Y64.3255
G0Z6 ; pen down on paper
G01 X91.5834 Y64.3255
G01 X91.1871 Y64.3255
G01 X91.1871 Y66.9999
G01 X90.5536 Y66.9999
G01 X91.1871 Y66.9999
G01 X91.1871 Y64.3255
G01 X90.7944 Y64.3255
G0Z0 ; pen up
G00 X93.6577 Y64.3255
G0Z6 ; pen down on paper
G01 X94.0504 Y64.3255
G01 X94.0504 Y66.9999
G01 X93.9837 Y66.9999
G01 X92.6502 Y65.0182
G01 X92.6502 Y64.9515
G01 X94.4467 Y64.9515
G01 X92.6502 Y64.9515
G01 X92.6502 Y65.0182
G01 X93.9837 Y66.9999
G01 X94.0504 Y66.9999
G01 X94.0504 Y64.3255
G01 X94.4467 Y64.3255
G01 X93.6577 Y64.3255
G0Z0 ; pen up
G00 X0 Y0 Z0
